<?xml version="1.0" encoding="UTF-8"?>
<kml xmlns="http://www.opengis.net/kml/2.2">
  <Document>
    <name>Rocket Trajectory</name>
    <Style id="actualStyle">
      <LineStyle>
        <color>ff00ff00</color> <!-- Green -->
        <width>2</width>
      </LineStyle>
    </Style>
    <Style id="predStyle">
      <LineStyle>
        <color>ff0000ff</color> <!-- Red -->
        <width>2</width>
      </LineStyle>
    </Style>
    <Placemark>
      <name>Actual Trajectory</name>
      <styleUrl>#actualStyle</styleUrl>
      <LineString>
        <extrude>1</extrude>
        <tessellate>1</tessellate>
        <altitudeMode>absolute</altitudeMode>
        <coordinates>
          0.047333118353882854,43.218436179829006,885.4145734922984 0.047333126792081126,43.21843619265015,885.4433738881069 0.04733313553701253,43.21843620593736,885.4732211940882 0.04733323919087707,43.2184363634309,885.8270019692852 0.047333260735039344,43.21843639616548,885.9005343017686 0.04733328313698606,43.2184364302034,885.9769943364033 0.047333306378774656,43.218436465517385,886.0563208335335 0.04733331590712676,43.218436479994935,886.088842030977 0.047333325566091884,43.21843649467094,886.1218090234108 0.0473333353553505,43.218436509544915,886.1552207202849 0.04733335532497279,43.218436539887115,886.2233789938505 0.0473333758165522,43.21843657102239,886.29331875806 0.047333396830732476,43.21843660295171,886.365042210175 0.04733363590786824,43.21843696620979,887.1810358520506 0.047333927939581126,43.21843740992799,888.1777686437058 0.047334273544165,43.21843793504578,889.3573508825043 0.04733452226509122,43.218438312956806,890.2062597241944 0.04733453305110797,43.218438329325956,890.243073991617 0.0473345438750027,43.218438345733304,890.2800181073817 0.04733456559855285,43.21843837862431,890.3541661092056 0.04733458747363442,43.21843841166783,890.428833798672 0.04733460950027208,43.21843844486361,890.5040214699203 0.04733481307426454,43.21843874828104,891.199049915977 0.04733502881234558,43.21843906402681,891.9358337338697 0.04733525682428577,43.21843939272127,892.7145751946603 0.04733549728065011,43.21843973549647,893.535472238498 0.04733560727846816,43.21843989147002,893.9107405110765 0.04733571976323783,43.21844005067455,894.2942524157036 0.04733583476170438,43.21844021330734,894.6860237647402 0.047336074029345025,43.21844055197671,895.4999027055271 0.0473363238795259,43.21844090748687,896.3474500937532 0.04733658461877519,43.21844128216066,897.2287804166997 0.047336856592728155,43.218441678652056,898.1439908059846 0.04733713724827245,43.21844209547714,899.0833816357049 0.047337429645224784,43.21844253953535,900.0560104989032 0.047337734182333724,43.218443014023535,901.0618662037748 0.047338051278472626,43.218443522271194,902.1009317575858 0.04733850483837975,43.21844427611458,903.5717508340636 0.04733898367189535,43.21844510767642,905.1042342667772 0.04733948886050339,43.21844602521675,906.6982866265439 0.04734002141850565,43.21844703628577,908.3538053275939 0.04734015224035362,43.21844729133369,908.7566671200645 0.047340284674039786,43.21844755212564,909.1630002115317 0.04734041872995093,43.21844781873224,909.5728034058957 0.04734066849805654,43.218448322341274,910.3323601627233 0.0473409237957348,43.21844884603021,911.1035470352714 0.04734118467163359,43.218449390098236,911.8863584001922 0.04734151689806471,43.218450095390224,912.8759426454872 0.047341857873315116,43.21845083283926,913.883486406346 0.04734220763987123,43.21845160257872,914.9089858333907 0.047342283399724856,43.21845177097755,915.130090956495 0.04734235956104321,43.218451940844886,915.3520132523106 0.04734243612387303,43.21845211217895,915.5747527346313 0.04734281596681667,43.218452970291736,916.6747667324314 0.047343205379429966,43.218453862991716,917.7942925826843 0.047343604324956,43.21845478973403,918.9333370988412 0.047344012744462594,43.218455749798125,920.0919095616033 0.047344715601150625,43.218457424717926,922.0700036332807 0.04734544416941044,43.21845918522538,924.1026333743096 0.047346197874586146,43.218461025849926,926.1898578663245 0.04734697609538863,43.21846294094529,928.331728187721 0.04734777821899349,43.218464925155985,930.5282796547344 0.047348603697780337,43.21846697387781,932.7795263415562 0.04734945210199641,43.21846908366558,935.0854568189093 0.04734966774925245,43.21846962038451,935.6704798363211 0.047349884809139674,43.21847016077306,936.2589173845342 0.04735010327999779,43.21847070482263,936.8507684483247 0.04735032316086156,43.21847125253066,937.4460319124802 0.04735054445155139,43.218471803901195,938.0447065457248 0.04735065904759452,43.21847208949132,938.3545737795318 0.047350774018385895,43.21847237605895,938.6653464715247 0.04735088936413414,43.21847266360657,938.9770244180237 0.04735100508510057,43.218472952137134,939.2896074072708 0.04735112419724525,43.21847324917524,939.6112366035973 0.047351243705052795,43.21847354725561,939.933817913242 0.0473513636089715,43.21847384638278,940.2573510829718 0.04735192658114974,43.2184752517279,941.7748137505071 0.04735249820215057,43.21847668046039,943.3128377596698 0.047352642468193096,43.2184770413836,943.7005528591434 0.04735278728163381,43.218477403830235,944.0895505007792 0.04735293264398916,43.21847776781402,944.4798299563545 0.04735307855672859,43.218478133348874,944.8713902125344 0.04735319801093778,43.21847843273622,945.1917992972674 0.04735331783332034,43.218478733173335,945.5130595645022 0.04735343802472814,43.21847903466821,945.8351704035149 0.04735387615803242,43.21848013489923,947.0081585032754 0.0473543191804961,43.218481249491454,948.1922519577105 0.047354767135729996,43.21848237883862,949.3874211131256 0.04735547582794833,43.21848417081513,951.2737403943821 0.04735604505459269,43.218485615207435,952.7846971763248 0.04735662202846438,43.21848708413802,954.3123384350778 0.04735720681212304,43.218488578130355,955.8566081941099 0.04735768151166913,43.21848979477388,957.1071551684079 0.04735816128680812,43.2184910279563,958.3683359506437 0.047358646149315176,43.21849227776479,959.6401238329445 0.047359136104217894,43.21849354422927,960.9224928715637 0.047359833289441704,43.218495352211434,962.7425695435146 0.047360540503319414,43.21849719279286,964.5834281468977 0.04736125769157914,43.218499065501675,966.4450039301919 0.047361984778841425,43.218500969707016,968.327234011228 0.047362721674700146,43.218502904674594,970.2300563573236 0.047363468278842656,43.218504869611905,972.1534089487616 0.04736422448646336,43.21850686371464,974.0972289238534 0.047364990194180064,43.21850888621608,976.0614517899977 0.04736613818575973,43.218511923630736,978.9994374229371 0.04736730643189677,43.21851501983564,981.9815478658653 0.047368257546742266,43.218517543955144,984.4040652898327 0.04736922152494678,43.21852010520355,986.8546525078782 0.04737019835823504,43.218522703801504,989.3331686509647 0.04737118806755791,43.21852534020239,991.8394672793772 0.0473721906965565,43.2185280150226,994.3733973740605 0.04737320630810141,43.218530728966,996.934804710165 0.04737437759500101,43.218533864925725,999.8819728005509 0.04737556591504744,43.21853705334893,1002.8642691801708 0.04737677136454121,43.21854029482424,1005.8814631555562 0.047377993957028894,43.218543589457305,1008.9333268611973 0.047379233602447855,43.21854693683479,1012.0196372732557 0.0473794736559962,43.218547585782375,1012.6163933767508 0.04737971433114592,43.21854823663936,1013.2144108676097 0.04737995562664314,43.21854888939917,1013.8136882088662 0.04738019754095185,43.218549544054234,1014.4142238679262 0.04738044007242321,43.21855020059657,1015.0160163144832 0.047380926980326456,43.2185515193112,1016.2233654380493 0.04738141633672233,43.21855284547746,1017.4357233029098 0.047381908127858106,43.218554179029844,1018.6530775805484 0.04738240233991142,43.21855551990358,1019.8754158750222 0.047383463209329485,43.21855840060425,1022.496021101089 0.047384534878536076,43.21856131369904,1025.1390651381885 0.04738561723245239,43.21856425872663,1027.8044123022837 0.047386710172973835,43.21856723534783,1030.491911642205 0.04738781362339349,43.21857024335776,1033.201400280864 0.04738947560206039,43.218574779143424,1037.2751831069106 0.04739072935082622,43.21857820504664,1040.3426615878693 0.04739199588807436,43.21858166968839,1043.4364560487306 0.04739327519126295,43.218585173182966,1046.5563339845974 0.04739456722259794,43.218588715544115,1049.7020604513239 0.04739587192104706,43.218592296646314,1052.8733995876864 0.0473973314552441,43.21859630733275,1056.4150286165004 0.04739880626986325,43.21860036466398,1059.987465244003 0.04740029619023245,43.21860446797518,1063.5903939985374 0.047401801028064135,43.21860861654924,1067.2234983694502 0.047403320595897164,43.21861280969831,1070.8864591860934 0.047405375968913276,43.218618487324136,1075.8323182626332 0.04740745702500684,43.21862424256198,1080.830238976953 0.04740900977200515,43.218628541032864,1084.5531319984768 0.04741057625340665,43.21863288120345,1088.3036469018107 0.047412156360160225,43.21863726281642,1092.0814599657756 0.04741374997403994,43.2186416855579,1095.886247301637 0.04741535696930496,43.21864614906261,1099.717692305569 0.047416977216353545,43.21865065293048,1103.5754905082672 0.04741904032330034,43.21865639277816,1108.480349989405 0.04742112407446477,43.218662195403056,1113.426189187519 0.04742322821766508,43.218668059981326,1118.4124830108178 0.04742535250819149,43.218673985749845,1123.4387006623224 0.04742749671569078,43.2186799720363,1128.5043051017142 0.04743012576223514,43.21868731852553,1134.7049809751925 0.04743225521636058,43.21869327417388,1139.7191966514033 0.04743440287678715,43.218699285305114,1144.7690674424555 0.04743656850863475,43.218705351210566,1149.8540469382492 0.04743875186404813,43.21871147111823,1154.9735859472403 0.047440952692023024,43.21871764423984,1160.1271414340931 0.04744366876131799,43.21872526819091,1166.4778752521916 0.047445889747753184,43.21873150690238,1171.6635509750859 0.04744812718464431,43.21873779574955,1176.8810149745611 0.047450380853125064,43.21874413409948,1182.1297498082804 0.04745265052891137,43.21875052129068,1187.40924124765 0.04745493597639621,43.21875695660549,1192.7189791891892 0.0474553500261249,43.21875812286837,1193.6802563255224 0.04745576457880465,43.218759290664664,1194.6424974016736 0.04745617963252425,43.218760459988324,1195.6056985638425 0.0474570112329812,43.21876280318694,1197.5349586558127 0.04745784481419088,43.218765152424204,1199.468006001857 0.0474586803620234,43.21876750765804,1201.4048073056101 0.047460556166485965,43.21877279678506,1205.7500032434077 0.0474624416415195,43.21877811524444,1210.113399398318 0.04746355378654607,43.21878125309313,1212.6849992286388 0.04746466937061876,43.218784400915396,1215.2626821914134 0.04746578845281956,43.21878755865558,1217.8463674507193 0.047467299444117116,43.21879182211745,1221.331402211477 0.047468537299267276,43.21879531460645,1224.1833689172227 0.04746977933988577,43.21879881867311,1227.042252340798 0.0474710254399649,43.21880233413449,1229.9079544143901 0.04747227543941641,43.21880586079229,1232.7803799796352 0.047473877177203624,43.21881038054482,1236.458298640116 0.04747548468509134,43.21881491783215,1240.1468307631922 0.04747709772236524,43.21881947230127,1243.8457790438015 0.04747871613745896,43.21882404365122,1247.554946621671 0.04748021950110844,43.21882829146879,1250.9985084004682 0.047481727415042516,43.218832553353955,1254.4504926306804 0.047483239897372825,43.218836829160196,1257.9107571869936 0.04748608717482195,43.21884488068098,1264.4184995174164 0.04748806162539264,43.21885046530336,1268.9261947482723 0.04749004355939872,43.21885607202053,1273.4467560855944 0.0474920327744331,43.218861700412546,1277.9799121210076 0.047494029018559716,43.21886735004864,1282.52540541266 0.04749627954285372,43.218873721298536,1287.6459215996329 0.04749853834395898,43.21888011826492,1292.7813276716568 0.04750080524916902,43.2188865404516,1297.9312672424753 0.04750308016176448,43.21889298740844,1303.095387498177 0.04750536300280171,43.218899458701834,1308.2733404267785 0.04750765365745982,43.218905953886434,1313.4647836916415 0.04750995195461768,43.21891247249262,1318.6693809513354 0.047512778499949226,43.218920491914176,1325.0648023579452 0.04751561579991674,43.21892854479816,1331.4788220114233 0.047518463542842566,43.21893663035768,1337.9109006351794 0.047521802325969774,43.21894611395152,1345.4451723100246 0.047525154567558694,43.21895563979184,1353.0024144253828 0.04752851989365441,43.218965206692516,1360.5817660798264 0.04753400087289268,43.218980795898766,1372.9103373194216 0.04753746722628512,43.21899065991413,1380.69755990134 0.047537860551728234,43.218991779413685,1381.5807007352053 0.04753825403127262,43.218992899400064,1382.4640933953679 0.047538647663593225,43.21899401986968,1383.34773538068 0.04753943538053746,43.21899626224194,1385.1157556622688 0.04754022369497472,43.21899850650909,1386.8847466331256 0.047541012599044724,43.219000752648675,1388.654692534813 0.04754351945745888,43.21900789135006,1394.2765355951074 0.047546031942309414,43.21901504795123,1399.9073200822952 0.047548549857641724,43.219022221818854,1405.54659657297 0.04754930789118069,43.21902438189971,1407.2436157980915 0.04755006639134889,43.21902654346087,1408.9413456137477 0.04755062342236807,43.21902813096885,1410.1879184498566 0.04755118068717632,43.219029719213815,1411.4348314371446 0.047551738175053086,43.21903130815876,1412.6820585360815 0.047552807751430774,43.2190343567986,1415.074416173105 0.04755387802188895,43.2190374075767,1417.46762241524 0.04755494890969764,43.219040460228115,1419.8614910201038 0.04755767656350625,43.21904823567486,1425.955519671036 0.04756040654570184,43.21905601688839,1432.0493111827516 0.04756229525797071,43.21906139908386,1436.2616528708274 0.047564184374861596,43.21906678082667,1440.4715593644783 0.047566073534026476,43.21907216070066,1444.6780238495296 0.04756850372544387,43.21907907798275,1450.0838709265263 0.047570398949691055,43.21908446982266,1454.2956006324268 0.047572292789410525,43.21908985522907,1458.5007175650362 0.04757418480375096,43.21909523283061,1462.6982796737425 0.04757652775528697,43.21910188826562,1467.8913748866232 0.04757886666078553,43.21910852746026,1473.069906754091 0.04758120085744573,43.21911514782989,1478.2320516823008 0.047583529832824795,43.219121747094924,1483.3761813476196 0.04758585312164078,43.21912832308373,1488.5007399181031 0.047588170241893074,43.219134873649175,1493.6041983078917 0.04758862239601707,43.219136150904234,1494.5991525242416 0.04758907429015683,43.21913742708833,1495.5932303335576 0.04758952592031337,43.21913870218699,1496.5864216942466 0.047590183424860454,43.21914055792253,1498.0318075650157 0.04759084035746622,43.21914241131338,1499.4752839568948 0.04759149671236571,43.21914426233962,1500.9168373101934 0.04759271333525476,43.21914769145107,1503.587172479394 0.04759392792307539,43.21915111226249,1506.2507788615626 0.04759514045113727,43.21915452468291,1508.9075945241982 0.04759774912375394,43.21916185721606,1514.6156735470065 0.04760034791668171,43.219169149316954,1520.2911853451783 0.04760219710441883,43.21917433008304,1524.3227801312012 0.04760321799814683,43.21917718735269,1526.5460391314052 0.0476042373229645,43.21918003811719,1528.7640764735431 0.047605255088218126,43.21918288238464,1530.9768970216371 0.04760676503852894,43.219187098134036,1534.2564165695385 0.04760827160651468,43.219191299632975,1537.5244804794454 0.04760977482622084,43.21919548694435,1540.7811323420678 0.04761350364378592,43.219205852481046,1548.8411769915774 0.047617212318518565,43.21921613134493,1556.8313875717229 0.04762090119951364,43.219226324290446,1564.7523059722498 0.04762536835650333,43.219238625248856,1574.3078947382994 0.0476298072289382,43.21925080085346,1583.762184540476 0.04763045122343524,43.21925256327595,1585.130359577243 0.04763109463462868,43.21925432306755,1586.4964057341597 0.04763173746338241,43.21925608022616,1587.860321449206 0.04763302137654481,43.2192595866354,1590.58175511525 0.047634302968399475,43.21926308247947,1593.2946432857432 0.04763558224310966,43.21926656772811,1595.9989646190631 0.0476368592033421,43.21927004234999,1598.6946972531005 0.04764105065838363,43.21928141606851,1607.5164373155744 0.04764521706093646,43.21929267286714,1616.2438625033774 0.047649358467618086,43.21930381174809,1624.8762834897534 0.04765608967268184,43.21932180386708,1638.812202864968 0.04766275437463104,43.21933947219666,1652.4880707029995 0.04766397233013964,43.21934268445081,1654.973469646801 0.047664977286519083,43.2193453309785,1657.0209181330122 0.047665980744221376,43.21934796996855,1659.0623207801232 0.04766698271683194,43.21935060146005,1661.0977053451247 0.047668982282167316,43.21935584217399,1665.1505812953455 0.047670976082086515,43.21936105342283,1669.1797610978656 0.0476729642226623,43.21936623553077,1673.1854753197777 0.04767758789550095,43.21937823148849,1682.454399333324 0.04768140566890657,43.21938807730967,1690.0577640425372 0.04768520429908431,43.21939782021418,1697.577612201839 0.04768898457682917,43.219407462756706,1705.0157577594775 0.047693855935428256,43.21941980978197,1714.5334547425516 0.047697715031759215,43.219429527907586,1722.0190811941334 0.04770155719131709,43.2194391477695,1729.4238312713408 0.04770538316001365,43.21944867185294,1736.7494744723404 0.0477117103494299,43.21946430086013,1748.7585090024136 0.04771799757615472,43.21947968120127,1760.5603383015775 0.047724247945111126,43.219494823356,1772.1624398648407 0.04773046413715607,43.21950973643389,1783.5713217198702 0.04773751319821614,43.21952647133249,1796.3514911598309 0.04774452436775963,43.21954293089202,1808.8965536216915 0.0477515007907121,43.21955912605682,1821.214359735911 0.047758445400297805,43.219575067117766,1833.312300169045 0.04776872664818879,43.21959833935383,1850.9231409701038 0.04777895186976378,43.21962110016246,1868.0839965036191 0.04778706385690719,43.219638887692675,1881.4485815332955 0.04778799778514519,43.21964092043238,1882.9731486473313 0.0477889313086346,43.21964294925389,1884.4942148767025 0.0477898643974052,43.21964497416387,1886.0117926068956 0.04779121082981743,43.21964789095765,1888.1968259159244 0.04779255622334087,43.2196507996377,1890.3746505595957 0.04779390051382202,43.21965370023853,1892.5453091185934 0.047795243669245514,43.21965659280038,1894.708840925591 0.04779758373720232,43.21966161902268,1898.465613372915 0.047799920476718376,43.21966662122583,1902.2010197124764 0.04780225421323455,43.219671599752196,1905.9152527592532 0.047804585342481755,43.21967655496243,1909.608503292166 0.04780691422474864,43.21968148720444,1913.280960626881 0.047809241123826444,43.21968639679404,1916.9328116893453 0.04781156618491703,43.21969128400789,1920.5642406121435 0.04781388944261976,43.21969614908606,1924.1754289209755 0.047817095207564955,43.21970283258373,1929.1301445211964 0.04782029719692883,43.2197094747729,1934.0470540584854 0.04782349515133127,43.2197160761504,1938.926611929084 0.04782668893602876,43.21972263723751,1943.769262179228 0.04782987859657253,43.21972915859661,1948.575438332458 0.047833595164353045,43.21973671792278,1954.1374694502565 0.04783730680499575,43.21974422493644,1959.651081797618 0.04784101390451916,43.21975168056621,1965.116916532539 0.04784471672375348,43.21975908568369,1970.5356004507055 0.047848415379439624,43.21976644109799,1975.9077465907142 0.04785318486544838,43.21977586591416,1982.7762393603573 0.04785794745261079,43.21978521072445,1989.5694025527025 0.0478627032331033,43.21979447709765,1996.2884555373532 0.04786745250466426,43.21980366662428,2002.9345805726932 0.04787219573013873,43.21981278090197,2009.5089253435342 0.04787693336553417,43.21982182147792,2016.0126049931512 0.04788166568578934,43.2198307897968,2022.4467049273576 0.047886392753420326,43.219839687199254,2028.812281780029 0.04789135995617256,43.219848972166275,2035.4360534922196 0.04789230359460549,43.21985072871322,2036.686928364296 0.047893247028171416,43.21985248254177,2037.9351535343674 0.04789419026180808,43.2198542336635,2039.180736793156 0.0478951332991735,43.219855982089406,2040.4236858961317 0.047897018797327245,43.21985947089649,2042.9017124320517 0.04789890354561167,43.219862949047204,2045.369294405628 0.047900787563324304,43.219866416623184,2047.8264923565662 0.0479026708694376,43.219869873705136,2050.273366190223 0.047904553482157566,43.219873320372876,2052.7099752341887 0.04791001171244939,43.21988326197251,2059.721761146403 0.04791546450519524,43.21989311840151,2066.6490347496765 0.04792091205897317,43.21990289144097,2073.4931620985453 0.04792635454340364,43.21991258282051,2080.255468916583 0.04793329039298173,43.21992483005026,2088.7652667505345 0.047940218852670746,43.21993695056176,2097.146579227894 0.04794714050678535,43.219948947682724,2105.4018942370462 0.0479540559181433,43.21996082462477,2113.533609242925 0.04796196964692792,43.219974284569496,2122.6986516999837 0.04796987634674204,43.21998759527424,2131.707915824085 0.04797777647529315,43.22000076094801,2140.5646191146616 0.047985670513803494,43.22001378565289,2149.271852333692 0.047993559027684526,43.22002667333432,2157.8325864125277 0.048001442637999055,43.22003942781608,2166.2496790314945 0.048009321933698106,43.220052052774506,2174.525881727847 0.04801788015770636,43.22006562975603,2183.3631132800574 0.04802643429568182,43.22007906219594,2192.040360812257 0.04803498472195944,43.22009235420448,2200.560772439505 0.04804353184585924,43.22010550976404,2208.927373202976 0.048052076170482176,43.220118532753105,2217.1430712812644 0.048060618262398776,43.220131426933165,2225.2106646514226 0.04806915865937546,43.22014419591462,2233.132847421506 0.048079743556056515,43.22015985561288,2242.7551759445887 0.048081622907624806,43.220162617156966,2244.4411959739737 0.04808350221229547,43.220165373033545,2246.120476201546 0.04808538147115347,43.22016812327246,2247.7930398586163 0.04808913986373139,43.220173607010345,2251.118149202416 0.048092898106325846,43.22017906860524,2254.4167007938677 0.04809665622582076,43.22018450831099,2257.6888843434263 0.048107310896569694,43.22019981513057,2266.825194144465 0.04811603389703657,43.2202122214303,2274.151435215429 0.048124757244760404,43.22022451806043,2281.3417549357623 0.04813348125315651,43.22023670793307,2288.3983371727104 0.04814419651069292,43.22025153675465,2296.884950867189 0.04815491357175802,43.22026621383679,2305.176859399768 0.048165632798835734,43.220280743883094,2313.277607635133 0.048180386860831266,43.22030050402338,2324.117027519012 0.048195146559285765,43.220320005022344,2334.608935645946 0.0482099128763241,43.22033925888529,2344.762286549255 0.04822468663703264,43.22035827606634,2354.5848369865344 0.048226773109230535,43.22036094252597,2355.945421215067 0.048228859745097996,43.22036360448909,2357.299575514136 0.04823094654000122,43.22036626196931,2358.647316907986 0.048234730487928416,43.22037106885181,2361.0746768855643 0.04823701199444119,43.22037395974642,2362.52802373972 0.048239293551662926,43.22037684517593,2363.973798939366 0.0482415751094444,43.220379725094205,2365.41202951296 0.048246138085776005,43.22038546828528,2368.265946998372 0.04824942116728685,43.220389587026084,2370.30101564654 0.04825270395137178,43.220393694167264,2372.320691485328 0.048255986414249726,43.22039778975856,2374.325045077425 0.04825926856874683,43.22040187390382,2376.3141439199817 0.04826294524113277,43.2204064359451,2378.5244916585007 0.0482666216623728,43.22041098405024,2380.715866869302 0.048270297948344205,43.22041551851142,2382.888357509049 0.0482739742176073,43.22042003962361,2385.042050336424 0.04827765058168859,43.22042454766974,2387.177031269157 0.04828253985138225,43.2204305228308,2389.9873592397853 0.04828742966334536,43.22043647591104,2392.764944644539 0.048292320158720065,43.2204424073793,2395.5099842089185 0.048297211412022895,43.220448317599065,2398.222673793326 0.048302103433163095,43.22045420683198,2400.9032085459808 0.04830924986360398,43.22046277112486,2404.7609411463195 0.048316397573392914,43.220471291365705,2408.5510898292405 0.04832217718427416,43.2204781479006,2411.5664147736397 0.04832795722327791,43.22048497587802,2414.5382488669247 0.04833373754527988,43.22049177545178,2417.4668878827642 0.04833951804824806,43.2204985468352,2420.3526199188427 0.04834529867479232,43.220505290303066,2423.1957252978727 0.04835686024191863,43.220518694822296,2428.7551417268555 0.04836521083535134,43.2205283091956,2432.6661935067973 0.04837356192373508,43.22053786887947,2436.4907285389595 0.048381913684205316,43.2205473751271,2440.2294837936033 0.048390266241253095,43.22055682908534,2443.8831766170797 0.0483986196468433,43.22056623176674,2447.45250694464 0.048408679446613555,43.2205774871521,2451.6394996508525 0.04841874038361828,43.22058867090632,2455.7063161762817 0.04842880233610868,43.22059978433636,2459.654075973409 0.04843886518034681,43.22061082869561,2463.4838603292287 0.048448928816070054,43.220621805221235,2467.1967121939488 0.04846016958328299,43.22063398605098,2471.2065331051026 0.048471411209984036,43.22064608551139,2475.073083457924 0.0484826536782205,43.220658105281295,2478.797659373934 0.04849389699572864,43.22067004699405,2482.381505749805 0.048508992111832246,43.22068595827962,2486.973487326381 0.04852105967034746,43.220698580333796,2490.465133872824 0.04853312828779427,43.220711118243415,2493.7992107562045 0.04854519797194291,43.220723573545236,2496.977009685859 0.048557268715695275,43.220735947640534,2499.9997739391206 0.048571126251206916,43.22075005365936,2503.280089098209 0.04858498513150354,43.22076405609639,2506.359437768926 0.048598845326096485,43.220777956458726,2509.239479752905 0.04861270681866634,43.220791756096254,2511.9218150504007 0.04862656960941704,43.22080545623389,2514.4079916455867 0.04864446222550585,43.22082299172722,2517.32902861701 0.048662357064634704,43.220840365484925,2519.928961052745 0.04868025417236252,43.22085757946207,2522.2108074017456 0.04869815359320441,43.2208746356168,2524.177523830779 0.048712083020619974,43.2208877994774,2525.4917237593645 0.04872601388954097,43.22090087040892,2526.61827245134 0.04873994621206897,43.22091385004907,2527.5585586395937 0.0487538799941194,43.22092674050015,2528.3139916551454 0.04876781523207073,43.22093954448051,2528.8860134373763 0.04877934714297073,43.220950076338944,2529.221721189032 0.04879088002126295,43.22096055397321,2529.4337299145413 0.048802413839020085,43.22097098061746,2529.522921170369 0.048805079793262825,43.22097338369466,2529.52615561062 0.04880581958932247,43.22097405009746,2529.525900054366 0.048807928574991805,43.22097593215925,2529.5219415456763 0.04881003783270196,43.220977797306844,2529.515484556732 0.04881425688440804,43.22098149426729,2529.4976104435223 0.0488184769933639,43.220985125528685,2529.469888592213 0.04882269812989587,43.22098869297232,2529.4324609889354 0.04884065360679513,43.22100318286619,2529.1679121381662 0.04885862531758314,43.221016668516555,2528.740041988653 0.048876611865440026,43.221029240078636,2528.157217667165 0.04889461215223696,43.22104096937835,2527.427262251692 0.048922364100639944,43.221057519090714,2526.032290916698 0.04895014432060243,43.22107236324535,2524.332802713467 0.04897795111850108,43.22108562363989,2522.355854377456 0.04900578312578228,43.22109740361125,2520.128789429197 0.049033639196326105,43.2211077944465,2517.6787368131018 0.04907582104443559,43.221121068402326,2513.6070944050043 0.04911805194046662,43.22113166609871,2509.170969603318 0.04916032828169124,43.22113989270941,2504.4460832078207 0.04920264653552733,43.221146047575104,2499.4966281582347 0.04924500333145536,43.22115041565639,2494.37528386277 0.04930198788719789,43.22115393268752,2487.2938375727 0.04935902961567698,43.22115526860781,2480.053615669511 0.04941612273612058,43.22115490677174,2472.708018690621 0.049473262453798884,43.22115324730682,2465.293689967846 0.049530444856462304,43.221150616373855,2457.8354331595247 0.04958766678995652,43.22114727658211,2450.3495992247017 0.04964492573402213,43.221143437725395,2442.846946367432 0.04970221968652534,43.2211392665326,2435.3345381174895 0.04976840542161198,43.221134207886124,2426.6553609630973 0.04983463381883438,43.221129039382305,2417.973619325234 0.04990090342830365,43.221123881967685,2409.2920038538787 0.04996721316360206,43.22111882626847,2400.61193710234 0.050033383906175795,43.22111395423765,2391.957632499945 0.05009959310962798,43.22110930421709,2383.3063399063185 0.05016584029783997,43.22110491571055,2374.6583580936776 0.0502321251075576,43.22110081867221,2366.0138428385667 0.050308326892032976,43.221096489187175,2356.0853849077066 0.050359523908694054,43.22109379234054,2349.4184325636406 0.05041069693885711,43.22109122572132,2342.753669549389 0.050461815708169794,43.22108874521349,2336.091133418308 0.05053444292717094,43.22108529867584,2326.611297796655 0.05060685035292302,43.221081866291705,2317.136170403386 0.05067900226555772,43.221078396144605,2307.6658240683646 0.05075087037303852,43.22107484700704,2298.20029066833 0.050880376713712636,43.22106811354465,2281.0515920228227 0.05100879210067376,43.221060889443535,2263.918751068085 0.051136071245627655,43.22105310802614,2246.801680035704 0.05126218739732666,43.22104472949098,2229.700268161877 0.05139288682970478,43.22103529404181,2211.822608456502 0.051522285260640566,43.2210251624772,2193.9619854517086 0.05165037667445796,43.22101432494162,2176.118322401354 0.05175637601770426,43.2210047264878,2161.225232872567 0.0518614609950557,43.22099463062973,2146.343864839692 0.05226006370891962,43.22095080656805,2088.784910167 0.052644972520451944,43.22089951596658,2031.3992066241178 0.05301622180635459,43.22084077372918,1974.1848128851425 0.05337385034517388,43.22077459990914,1917.1397333610653 0.053451842564246364,43.220758810591114,1904.425824693379 0.05352915801536668,43.22074265201413,1891.7202439192013 0.053592855244673554,43.220728951668754,1881.174438870015 0.05359924858048452,43.220727556826205,1880.111967630633 0.05360563690849387,43.22072615931788,1879.0495550775313 0.053612020015043886,43.220724759079225,1877.9872017098153 0.053624769359123345,43.220721950046844,1875.862675264999 0.053637495039474736,43.22071912925348,1873.7383917224586 0.053650195430854024,43.22071629620787,1871.6143544189194 0.05369151291548448,43.22070694581227,1864.6737241402698 0.05373249816701734,43.22069744577062,1857.7358255573397 0.05377310965980741,43.22068778354126,1850.8007074544723 0.05381331618266218,43.220677949704346,1843.868387453206 0.053871457194183896,43.22066321343894,1833.7142310695504 0.05392861748875153,43.2206480751697,1823.5660605959083 0.05398476044514401,43.22063252389292,1813.4238146415314 0.0540398596399188,43.22061655168832,1803.2874375230467 0.05409389376405766,43.220600152180374,1793.1568883367636 0.05417350630687395,43.22057454453997,1777.8563960468089 0.05425061480861948,43.220547939679065,1762.5690395098063 0.05432519820041938,43.220520331448014,1747.294722026062 0.05439724559282057,43.22049171677049,1732.0333622977096 0.05449408383956756,43.2204498531817,1710.634312660132 0.05458590936744926,43.220406002787016,1689.2605085490252 0.05467272679226583,43.22036016754629,1667.9118238361689 0.05475454108926389,43.220312349522175,1646.5881387879788 0.05483135537115764,43.22026255021117,1625.289330776786 0.05496765512062914,43.220159005756145,1583.5387753159596 0.05508472653011171,43.22004784348004,1541.8827837734816 0.05518261431717984,43.21992908100651,1500.320498869359 0.055261364167708535,43.21980273621208,1458.851082063963 0.055272802563428716,43.21978060261879,1451.8412720462138 0.055283694182921866,43.2197582523948,1444.8340942611726 0.0552940392097554,43.21973568561345,1437.829545035676 0.05531311463710909,43.21968991252226,1423.8282862379651 0.05531520108940008,43.219684513378006,1422.1944666933841 0.05531928864298962,43.21967368130293,1418.9272507402336 0.05532326495673062,43.21966280521263,1415.6605958869736 0.055327132911701306,43.219651886269574,1412.3944996412165 0.05533763769515893,43.21962038218781,1403.0419651021443 0.0553473210639384,43.219588553797756,1393.6940133189464 0.055356220741241906,43.219556416314454,1384.3506584114289 0.05536996021334742,43.219499546803384,1368.0355769252408 0.05538149263696532,43.219441808441616,1351.7347291140384 0.055390863110179274,43.219383219386756,1335.4481943856913 0.0553980972293628,43.21932378993078,1319.1759958198468 0.055401022825341484,43.21929256995705,1310.7232737584372 0.0554033800489614,43.219261126475345,1302.2743956796712 0.05540517032785881,43.21922946005786,1293.829369488646 0.05540639557534351,43.219197545322956,1285.381376786059 0.055407055029371474,43.21916540811942,1276.9372321038818 0.05540714943697936,43.2191330487455,1268.496928696502 0.05540477901600793,43.219048357554634,1246.6927826431001 0.055398643505104074,43.21896218602194,1224.914158538682 0.055396522146931665,43.21894041215925,1219.4734794234748 0.05539416606853828,43.218918546012574,1214.0343865814968 0.05539157525321042,43.2188965875745,1208.5968779332015 0.05538799547238592,43.218868778443124,1201.7426461309624 0.055384116044706645,43.21884085985979,1194.8908425133213 0.05537999909914854,43.2188128633186,1188.0414316567094 0.05537340500958424,43.21877028364161,1177.6519086747226 0.055366536759612936,43.218727662695024,1167.2678926491108 0.055359477073398035,43.21868504236459,1156.8895229868372 0.05535228812521098,43.21864245411135,1146.5168680978686 0.055341044295959,43.218576834901874,1130.5176202776352 0.0553297181206271,43.21851140613052,1114.5319374894561 0.055318367413728836,43.21844619688192,1098.5598725647128 0.055307028031841426,43.21838122511707,1082.601391031376 0.05529520926235528,43.21831355421193,1065.9287620709572 0.055283440855404334,43.21824616175889,1049.2708181201801 0.055271731894276484,43.21817905213066,1032.6275440391505 0.05526165642532837,43.21812123692813,1018.2440723777981 0.055251630643312226,43.21806363563464,1003.8715054508673 0.05524649839865362,43.218034120370824,996.4903630654949 0.055241386244898646,43.21800467733623,989.1120490276481 0.05523631202466789,43.21797534804807,981.7364962714889 0.05523128350807714,43.21794609537882,974.3403340383824 0.055226338988573896,43.21791706388347,966.9468030881737 0.05522149530099835,43.21788829275691,959.5558655142509 0.0552144909483408,43.21784597356567,948.5510911199044 0.05520777110463913,43.21780437351958,937.5519343324368 0.05520135402713362,43.2177635350607,926.5583272553379 0.05519525276186321,43.21772348849717,915.5702034731326 0.05518710889162262,43.21766773417021,899.8928379430648 0.055180004244236476,43.217616348287436,885.0106194860502
        </coordinates>
      </LineString>
    </Placemark>
    <Placemark>
      <name>Predicted Trajectory</name>
      <styleUrl>#predStyle</styleUrl>
      <LineString>
        <extrude>1</extrude>
        <tessellate>1</tessellate>
        <altitudeMode>absolute</altitudeMode>
        <coordinates>
          0.04735706001520157,43.218467712402344,933.5570068359375 0.047357067465782166,43.218467712402344,933.772216796875 0.04735707864165306,43.218467712402344,933.9912109375 0.04735708609223366,43.218467712402344,934.2115478515625 0.04735696315765381,43.218467712402344,934.442626953125 0.04735705628991127,43.218467712402344,934.6640625 0.04735709726810455,43.218467712402344,934.8756103515625 0.04735712334513664,43.218467712402344,935.061279296875 0.047357168048620224,43.218467712402344,935.2271728515625 0.047357190400362015,43.218467712402344,935.401611328125 0.04735720902681351,43.218467712402344,935.584228515625 0.04735720902681351,43.218467712402344,935.775146484375 0.047357216477394104,43.218467712402344,935.9735107421875 0.047357227653265,43.218467712402344,936.1781005859375 0.04735692963004112,43.218467712402344,936.408447265625 0.047356776893138885,43.218467712402344,936.6541748046875 0.047356683760881424,43.218467712402344,936.9036865234375 0.04735684022307396,43.218467712402344,937.153564453125 0.04735727980732918,43.218467712402344,937.3704833984375 0.047357458621263504,43.218467712402344,937.585693359375 0.04735752195119858,43.218467712402344,937.8221435546875 0.047357551753520966,43.218467712402344,938.0888061523438 0.04735757037997246,43.218467712402344,938.3825073242188 0.04735732078552246,43.218467712402344,938.7281494140625 0.04735724627971649,43.218467712402344,939.10546875 0.0473572313785553,43.218467712402344,939.5052490234375 0.04735725000500679,43.218467712402344,939.9229736328125 0.04735751077532768,43.218467712402344,940.190673828125 0.04735760763287544,43.218467712402344,940.641845703125 0.04735767841339111,43.218467712402344,941.1093139648438 0.047357555478811264,43.21847152709961,941.6371459960938 0.04735753312706947,43.21847152709961,942.2023315429688 0.04735754430294037,43.21847152709961,942.799072265625 0.047357574105262756,43.21847152709961,943.4172973632812 0.04735763743519783,43.21847152709961,943.8422241210938 0.04735764116048813,43.21847152709961,944.4970703125 0.047357670962810516,43.21847152709961,945.1475830078125 0.047357700765132904,43.21847152709961,945.8347778320312 0.047357555478811264,43.21847152709961,946.6177368164062 0.04735752195119858,43.21847152709961,947.4644775390625 0.047357525676488876,43.21847152709961,948.3786010742188 0.047357551753520966,43.21847152709961,949.3304443359375 0.047358155250549316,43.21847152709961,950.2697143554688 0.04735839366912842,43.21847152709961,951.1907348632812 0.047358568757772446,43.21847152709961,951.6013793945312 0.04735846444964409,43.21847152709961,951.9487915039062 0.0473584420979023,43.21847152709961,952.1763916015625 0.04735841229557991,43.21847152709961,952.6541137695312 0.04735829308629036,43.218475341796875,953.6909790039062 0.04735834151506424,43.218475341796875,954.7185668945312 0.04735841974616051,43.218475341796875,955.802490234375 0.04735886678099632,43.218475341796875,956.9160766601562 0.047359075397253036,43.218475341796875,958.0474853515625 0.047359246760606766,43.218475341796875,958.7732543945312 0.047358911484479904,43.218475341796875,959.57275390625 0.04735880717635155,43.218475341796875,960.3566284179688 0.047358784824609756,43.218475341796875,961.1148681640625 0.04735875129699707,43.218475341796875,962.1823120117188 0.047358423471450806,43.218475341796875,963.233642578125 0.04735831543803215,43.218475341796875,964.2933959960938 0.04735831916332245,43.21847915649414,965.0584716796875 0.047358304262161255,43.21847915649414,965.8326416015625 0.047358300536870956,43.21847915649414,966.5859375 0.047358304262161255,43.21847915649414,967.334228515625 0.04735830798745155,43.21847915649414,968.0971069335938 0.04735912010073662,43.21847915649414,968.7890014648438 0.04735942557454109,43.21847915649414,969.4431762695312 0.04735954850912094,43.21847915649414,970.0753173828125 0.04735962301492691,43.21847915649414,970.3951416015625 0.04735962674021721,43.21847915649414,970.6954345703125 0.047359760850667953,43.21847915649414,970.9370727539062 0.047359827905893326,43.21847915649414,971.1665649414062 0.04735977575182915,43.21847915649414,972.3829956054688 0.0473598912358284,43.21847915649414,973.5224609375 0.047360002994537354,43.21847915649414,974.7120971679688 0.0473601296544075,43.21847915649414,975.6583251953125 0.047360196709632874,43.21847915649414,976.609619140625 0.04735969379544258,43.21847915649414,977.5496215820312 0.04735953360795975,43.21847915649414,978.2908325195312 0.047359999269247055,43.21847915649414,978.9261474609375 0.047360170632600784,43.21847915649414,979.4913330078125 0.04736015573143959,43.218482971191406,980.6439208984375 0.04736018553376198,43.218482971191406,981.7212524414062 0.04736020416021347,43.218482971191406,982.8142700195312 0.04736026003956795,43.218482971191406,983.3095703125 0.047360166907310486,43.218482971191406,983.9139404296875 0.04735967516899109,43.218482971191406,984.5729370117188 0.04735942929983139,43.218482971191406,985.242919921875 0.04735935851931572,43.218482971191406,985.3089599609375 0.04735890403389931,43.218482971191406,985.3787841796875 0.04735885560512543,43.218482971191406,985.30078125 0.047358784824609756,43.218482971191406,985.0425415039062 0.047358714044094086,43.218482971191406,984.5990600585938 0.04735879227519035,43.218482971191406,983.9774780273438 0.047358784824609756,43.218482971191406,983.236328125 0.047358594834804535,43.218482971191406,983.8070678710938 0.04735864698886871,43.218482971191406,984.164306640625 0.047358445823192596,43.218482971191406,984.5538940429688 0.047358401119709015,43.218482971191406,984.9718627929688 0.0473584309220314,43.218482971191406,985.427734375 0.04735847935080528,43.218482971191406,986.1751098632812 0.04735859856009483,43.218482971191406,986.9763793945312 0.047358740121126175,43.218482971191406,987.8865356445312 0.04735889658331871,43.21848678588867,988.9078369140625 0.04735906422138214,43.21848678588867,990.013671875 0.047358784824609756,43.21848678588867,991.2174072265625 0.04735877737402916,43.21848678588867,992.4429931640625 0.04735925421118736,43.21848678588867,992.6590576171875 0.047359440475702286,43.21848678588867,992.9825439453125 0.04735951870679855,43.21848678588867,994.289794921875 0.04735976830124855,43.21848678588867,995.53173828125 0.04736001789569855,43.21848678588867,996.8859252929688 0.04736028239130974,43.21848678588867,998.38134765625 0.04736039415001869,43.21848678588867,1000.1143798828125 0.04736064001917839,43.21848678588867,1002.0081787109375 0.04736094921827316,43.21848678588867,1004.0383911132812 0.0473613478243351,43.21849060058594,1005.4856567382812 0.04736163839697838,43.21849060058594,1007.0958862304688 0.04736317694187164,43.21849060058594,1008.6135864257812 0.0473640114068985,43.21849060058594,1009.541015625 0.047364406287670135,43.21849060058594,1010.8895874023438 0.047364696860313416,43.21848678588867,1012.2405395507812 0.047364894300699234,43.21848678588867,1013.63916015625 0.0473647266626358,43.21849060058594,1015.3700561523438 0.04736475646495819,43.21849060058594,1017.1094970703125 0.04736483469605446,43.21849060058594,1018.8469848632812 0.047364916652441025,43.21849060058594,1020.5433959960938 0.04736432433128357,43.21849060058594,1021.8319091796875 0.04736403375864029,43.21849060058594,1023.13720703125 0.04736390709877014,43.21849060058594,1024.3856201171875 0.04736386612057686,43.2184944152832,1025.58544921875 0.04736386239528656,43.2184944152832,1026.751708984375 0.047363199293613434,43.2184944152832,1027.9666748046875 0.04736347869038582,43.2184944152832,1029.118408203125 0.04736362770199776,43.2184944152832,1030.192626953125 0.04736381396651268,43.21849822998047,1030.4801025390625 0.04736382141709328,43.21849822998047,1030.8245849609375 0.047363825142383575,43.21849822998047,1031.68994140625 0.04736381769180298,43.21849822998047,1032.6318359375 0.047363970428705215,43.21849822998047,1033.716064453125 0.04736422747373581,43.21849822998047,1034.9368896484375 0.04736457020044327,43.21849822998047,1036.260009765625 0.04736495763063431,43.21849822998047,1037.61279296875 0.0473647378385067,43.21849822998047,1038.67138671875 0.04736483842134476,43.21849822998047,1039.648193359375 0.04736579954624176,43.21849822998047,1040.367919921875 0.04736645519733429,43.21849822998047,1040.904296875 0.04736698418855667,43.21849822998047,1041.40087890625 0.04736750200390816,43.21849822998047,1044.42431640625 0.047368478029966354,43.21849822998047,1047.298095703125 0.04736945033073425,43.21849822998047,1050.3291015625 0.04736990109086037,43.21849822998047,1053.59326171875 0.04737068712711334,43.218502044677734,1057.05859375 0.04737166687846184,43.218502044677734,1060.17626953125 0.04737264662981033,43.218502044677734,1063.5462646484375 0.047373704612255096,43.218502044677734,1067.0992431640625 0.04737421125173569,43.218505859375,1070.875 0.04737585410475731,43.218505859375,1073.58544921875 0.04737459495663643,43.218509674072266,1077.217041015625 0.047360192984342575,43.21852111816406,1085.08837890625 0.047345537692308426,43.21853256225586,1093.081298828125 0.04733080789446831,43.21854782104492,1101.107421875 0.04731981083750725,43.21855545043945,1106.841064453125 0.04730553552508354,43.21856689453125,1114.7115478515625 0.047291096299886703,43.21858215332031,1122.6414794921875 0.04727626591920853,43.21859359741211,1130.7476806640625 0.047261033207178116,43.21860885620117,1139.0625 0.04724540933966637,43.21862030029297,1147.587158203125 0.047233741730451584,43.218631744384766,1155.117431640625 0.04722166433930397,43.21864318847656,1162.1248779296875 0.04720982164144516,43.21865463256836,1168.71044921875 0.04719792678952217,43.218666076660156,1174.9052734375 0.047187164425849915,43.21867370605469,1180.54736328125 0.047181155532598495,43.21867752075195,1183.6448974609375 0.04717417433857918,43.21868133544922,1186.5013427734375 0.04716430604457855,43.21868896484375,1191.301513671875 0.04715653508901596,43.21869659423828,1195.746337890625 0.047149039804935455,43.21870422363281,1199.831787109375 0.04714179411530495,43.218711853027344,1203.70068359375 0.04713407903909683,43.218719482421875,1207.529541015625 0.047127217054367065,43.218727111816406,1211.189208984375 0.047123022377491,43.21873092651367,1213.3583984375 0.047119125723838806,43.21873474121094,1215.237548828125 0.047115508466959,43.2187385559082,1216.9483642578125 0.04711149260401726,43.2187385559082,1218.646484375 0.047107674181461334,43.21874237060547,1220.376953125 0.047106437385082245,43.21874237060547,1220.800537109375 0.047101940959692,43.218746185302734,1222.902587890625 0.04709719866514206,43.218753814697266,1225.37255859375 0.047092095017433167,43.21875762939453,1228.0174560546875 0.04708746075630188,43.2187614440918,1230.72900390625 0.04708606377243996,43.21876525878906,1234.0982666015625 0.04708889126777649,43.21876525878906,1235.120849609375 0.04709057882428169,43.21876907348633,1237.1993408203125 0.047092288732528687,43.21876907348633,1238.1942138671875 0.04709308221936226,43.21876907348633,1237.9873046875 0.04709263890981674,43.21876907348633,1237.0224609375 0.04709294065833092,43.21876525878906,1236.0948486328125 0.047100115567445755,43.21877670288086,1246.398681640625 0.04711079224944115,43.218788146972656,1257.171875 0.04712170362472534,43.21880340576172,1268.461669921875 0.047131799161434174,43.21881103515625,1278.093994140625 0.047141071408987045,43.21882247924805,1287.857177734375 0.04714839160442352,43.218833923339844,1297.6351318359375 0.04715505242347717,43.218841552734375,1302.940185546875 0.04716050997376442,43.21884536743164,1308.307373046875 0.04716623201966286,43.21885681152344,1317.6259765625 0.04717455804347992,43.218868255615234,1327.39208984375 0.04718349128961563,43.21887969970703,1337.41259765625 0.04718596488237381,43.21889114379883,1346.89599609375 0.047199200838804245,43.218902587890625,1358.1484375 0.047220923006534576,43.21891403198242,1368.0972900390625 0.04723510518670082,43.21892166137695,1376.4576416015625 0.04724464192986488,43.218929290771484,1383.906494140625 0.04724987968802452,43.218936920166016,1389.697265625 0.04725339263677597,43.21894073486328,1395.213134765625 0.04725612327456474,43.21894836425781,1400.510986328125 0.047252677381038666,43.218955993652344,1406.255615234375 0.04725228250026703,43.218963623046875,1412.94482421875 0.04725360497832298,43.218971252441406,1419.6998291015625 0.04726126790046692,43.21897888183594,1425.495849609375 0.047266725450754166,43.2189826965332,1426.71240234375 0.04726721718907356,43.21898651123047,1429.1748046875 0.04726762697100639,43.218990325927734,1431.2613525390625 0.04726669564843178,43.218990325927734,1432.82666015625 0.04726313427090645,43.218994140625,1434.095947265625 0.047260403633117676,43.218994140625,1434.668212890625 0.04725754261016846,43.218997955322266,1435.0361328125 0.047249648720026016,43.218997955322266,1436.0966796875 0.047245875000953674,43.21900177001953,1438.2657470703125 0.04724758863449097,43.21900939941406,1441.042724609375 0.04724946245551109,43.21901321411133,1444.348876953125 0.04725166782736778,43.219017028808594,1448.3779296875 0.047253113240003586,43.219024658203125,1452.2742919921875 0.047256458550691605,43.21902847290039,1456.332763671875 0.0472591370344162,43.21903610229492,1460.0806884765625 0.04726148396730423,43.21903610229492,1461.712158203125 0.047260187566280365,43.21903610229492,1461.5950927734375 0.04725874960422516,43.21903610229492,1459.61572265625 0.04725704714655876,43.219017028808594,1448.3463134765625 0.04725183919072151,43.21900939941406,1443.2099609375 0.047253649681806564,43.21902084350586,1451.8604736328125 0.0472613126039505,43.219032287597656,1461.3153076171875 0.04727528244256973,43.21904373168945,1470.6588134765625 0.04728519171476364,43.219051361083984,1477.992919921875 0.04729148745536804,43.219058990478516,1484.648681640625 0.04729464650154114,43.21906661987305,1490.2850341796875 0.04729720950126648,43.21906280517578,1489.162109375 0.047295574098825455,43.219058990478516,1486.709228515625 0.04729166999459267,43.21905517578125,1483.8218994140625 0.04728884994983673,43.21906280517578,1487.5438232421875 0.04728969186544418,43.21906661987305,1491.3338623046875 0.04728594794869423,43.21907424926758,1496.59912109375 0.04728557541966438,43.219085693359375,1502.82568359375 0.04728936776518822,43.219093322753906,1509.310546875 0.047295860946178436,43.21910095214844,1514.0709228515625 0.047299183905124664,43.21910858154297,1518.3387451171875 0.04730093851685524,43.219112396240234,1522.1864013671875 0.04730226472020149,43.219112396240234,1522.003173828125 0.047300778329372406,43.219112396240234,1521.386962890625 0.04729897528886795,43.2191162109375,1523.0509033203125 0.04729173332452774,43.219120025634766,1526.0574951171875 0.047289520502090454,43.2191276550293,1530.3865966796875 0.04729113355278969,43.21913146972656,1534.177001953125 0.0472906120121479,43.21914291381836,1540.31494140625 0.04729413613677025,43.21915054321289,1547.53125 0.0473121777176857,43.21915817260742,1553.5902099609375 0.04732412099838257,43.21916198730469,1556.591796875 0.0473308227956295,43.21916198730469,1558.2606201171875 0.047332365065813065,43.21916198730469,1559.08349609375 0.04733326658606529,43.21916198730469,1559.158447265625 0.04733385145664215,43.21915817260742,1558.57080078125 0.047334518283605576,43.219154357910156,1557.7357177734375 0.047324731945991516,43.21916580200195,1564.962890625 0.04732382670044899,43.21917724609375,1573.532958984375 0.04732627421617508,43.21919250488281,1582.9232177734375 0.047321952879428864,43.219207763671875,1593.4425048828125 0.04732344672083855,43.2192268371582,1605.6998291015625 0.04734666272997856,43.219242095947266,1616.4903564453125 0.04736337065696716,43.2192497253418,1623.6680908203125 0.04737306013703346,43.219261169433594,1629.57763671875 0.047378625720739365,43.21926498413086,1634.4886474609375 0.0473807230591774,43.21926498413086,1635.8115234375 0.04738066345453262,43.21926498413086,1637.0252685546875 0.04738014191389084,43.219268798828125,1640.338623046875 0.04737115651369095,43.21928024291992,1647.3070068359375 0.04737158119678497,43.219295501708984,1655.867919921875 0.047373756766319275,43.21931076049805,1665.3546142578125 0.04737786576151848,43.219322204589844,1674.7117919921875 0.04737735539674759,43.21934127807617,1684.9029541015625 0.04738158360123634,43.219356536865234,1694.987060546875 0.04739057272672653,43.219364166259766,1700.8980712890625 0.04739464074373245,43.21936798095703,1705.4549560546875 0.04738976061344147,43.21936798095703,1709.7176513671875 0.04739129915833473,43.219364166259766,1712.774169921875 0.04739467427134514,43.2193603515625,1715.9764404296875 0.04739335551857948,43.21936798095703,1728.60791015625 0.04739761725068092,43.21937561035156,1742.827392578125 0.047403737902641296,43.21938705444336,1758.3385009765625 0.04741249606013298,43.21939468383789,1774.1298828125 0.0474202036857605,43.21940612792969,1790.892333984375 0.04741676524281502,43.219425201416016,1809.628173828125 0.04741733893752098,43.219444274902344,1829.82177734375 0.047435514628887177,43.219451904296875,1846.380615234375 0.04746731370687485,43.219451904296875,1856.9765625 0.04748764634132385,43.21945571899414,1862.398193359375 0.047508276998996735,43.21944046020508,1861.1278076171875 0.047517482191324234,43.219425201416016,1857.5145263671875 0.047509945929050446,43.21943283081055,1863.817138671875 0.047509681433439255,43.21944046020508,1870.55859375 0.04750768840312958,43.21944808959961,1876.8603515625 0.047500722110271454,43.219459533691406,1882.97900390625 0.04749716818332672,43.21946716308594,1888.1522216796875 0.04749133810400963,43.219478607177734,1892.8814697265625 0.04748496785759926,43.21949005126953,1897.132568359375 0.047488756477832794,43.2194938659668,1899.94140625 0.047483909875154495,43.21950149536133,1902.20068359375 0.047480806708335876,43.21950912475586,1904.863525390625 0.04747779294848442,43.21951675415039,1907.8070068359375 0.0474768690764904,43.219520568847656,1911.4158935546875 0.04747111350297928,43.21953201293945,1915.7589111328125 0.047468461096286774,43.219539642333984,1921.3916015625 0.04746635630726814,43.21955108642578,1927.7191162109375 0.047474637627601624,43.21955871582031,1934.885986328125 0.0474761463701725,43.219566345214844,1941.3924560546875 0.04747849330306053,43.219573974609375,1948.611083984375 0.04748118296265602,43.21958541870117,1956.1781005859375 0.047486867755651474,43.2195930480957,1963.369140625 0.04749041795730591,43.219600677490234,1969.357421875 0.04749050363898277,43.21961212158203,1974.3028564453125 0.04749172925949097,43.2196159362793,1977.63525390625 0.04750426486134529,43.2196044921875,1975.353515625 0.047511279582977295,43.21958541870117,1968.9510498046875 0.04751456528902054,43.219566345214844,1964.2554931640625 0.04750756174325943,43.21957778930664,1972.4400634765625 0.047511544078588486,43.21958923339844,1981.4346923828125 0.047515254467725754,43.21959686279297,1990.593994140625 0.047518957406282425,43.219608306884766,1999.376708984375 0.047532714903354645,43.2196159362793,2006.9822998046875 0.04754173755645752,43.21962356567383,2013.023193359375 0.04754694923758507,43.21963119506836,2018.24462890625 0.04755214974284172,43.219635009765625,2021.743408203125 0.047551531344652176,43.21963882446289,2025.2093505859375 0.047550804913043976,43.21964645385742,2028.8997802734375 0.0475500263273716,43.21965026855469,2032.642822265625 0.04754914343357086,43.21965789794922,2036.375244140625 0.047548070549964905,43.21966552734375,2040.079345703125 0.04753728210926056,43.21967697143555,2044.9239501953125 0.04753023013472557,43.219688415527344,2051.166259765625 0.04752858728170395,43.219696044921875,2057.1845703125 0.047527555376291275,43.21970748901367,2063.43505859375 0.04752403497695923,43.21971893310547,2070.44970703125 0.04752294346690178,43.219730377197266,2078.33203125 0.04752356559038162,43.21974182128906,2086.75048828125 0.04752689227461815,43.21975326538086,2095.136474609375 0.047527726739645004,43.219764709472656,2104.11865234375 0.047529950737953186,43.21977996826172,2113.8134765625 0.0475330613553524,43.21979522705078,2123.923828125 0.047536611557006836,43.21980667114258,2134.21435546875 0.04754343256354332,43.21982192993164,2143.63623046875 0.047548867762088776,43.21983337402344,2152.7421875 0.04755439981818199,43.219844818115234,2161.6083984375 0.04755847901105881,43.21985626220703,2170.27001953125 0.04756322130560875,43.21986389160156,2178.6171875 0.04756864532828331,43.21987533569336,2186.45166015625 0.04757479205727577,43.21988296508789,2193.779296875 0.04758168011903763,43.219886779785156,2200.810546875 0.047589920461177826,43.21989059448242,2207.673095703125 0.04758754372596741,43.21990966796875,2219.3330078125 0.04758523777127266,43.219932556152344,2231.87158203125 0.047600410878658295,43.219947814941406,2242.84130859375 0.047609440982341766,43.21996307373047,2251.51025390625 0.04761580005288124,43.21997833251953,2258.40380859375 0.04761306941509247,43.219993591308594,2265.3984375 0.04760829731822014,43.22001266479492,2272.86767578125 0.0476018451154232,43.22003173828125,2280.43603515625 0.04758079722523689,43.22005844116211,2289.43701171875 0.047578856348991394,43.22007751464844,2297.9384765625 0.047574568539857864,43.2200927734375,2306.2001953125 0.047571681439876556,43.22011184692383,2314.611328125 0.04756610095500946,43.22013473510742,2323.549072265625 0.047567110508680344,43.22015380859375,2332.4453125 0.047567762434482574,43.22017288208008,2341.4736328125 0.047562818974256516,43.22019577026367,2351.5732421875 0.047561027109622955,43.220218658447266,2362.835693359375 0.04756477475166321,43.22024154663086,2374.189453125 0.0475691519677639,43.22026443481445,2385.609619140625 0.04759303107857704,43.22028350830078,2394.763427734375 0.047610700130462646,43.220298767089844,2401.04443359375 0.04762257635593414,43.220314025878906,2405.9296875 0.04762745648622513,43.22032928466797,2410.40869140625 0.04763208329677582,43.220340728759766,2414.4326171875 0.04763631522655487,43.22035217285156,2417.318359375 0.047638338059186935,43.22036361694336,2419.26611328125 0.04763621836900711,43.22037124633789,2420.77783203125 0.047636840492486954,43.22037887573242,2421.75146484375 0.047638144344091415,43.22038269042969,2421.91455078125 0.047640375792980194,43.22038269042969,2421.46728515625 0.04764363914728165,43.22038269042969,2420.75048828125 0.04765254631638527,43.220375061035156,2419.2275390625 0.04763808473944664,43.22039031982422,2422.926513671875 0.04762982204556465,43.22040557861328,2427.78564453125 0.04762059077620506,43.22042465209961,2432.78759765625 0.047615207731723785,43.22044372558594,2437.047119140625 0.04760587587952614,43.220462799072266,2441.389892578125 0.04759631305932999,43.220481872558594,2445.94873046875 0.04760412871837616,43.22049331665039,2447.88037109375 0.04760197550058365,43.22050476074219,2449.88916015625 0.04760139808058739,43.220516204833984,2452.220703125 0.047598037868738174,43.22053146362305,2454.78173828125 0.047600433230400085,43.220542907714844,2456.76806640625 0.04760439321398735,43.220550537109375,2458.0751953125 0.047609176486730576,43.220558166503906,2458.5751953125 0.047623760998249054,43.220558166503906,2456.74365234375 0.04763743281364441,43.220550537109375,2453.799072265625 0.04765276238322258,43.22053527832031,2450.62451171875 0.04766271263360977,43.220523834228516,2448.531005859375 0.0476565919816494,43.22053146362305,2452.847900390625 0.04765770211815834,43.220542907714844,2458.6630859375 0.04765899106860161,43.220558166503906,2464.40234375 0.047663379460573196,43.2205696105957,2469.468994140625 0.04766421020030975,43.2205810546875,2474.994873046875 0.047663912177085876,43.22059631347656,2480.902587890625 0.04766403138637543,43.220611572265625,2487.022705078125 0.04766864702105522,43.22062683105469,2492.372802734375 0.04767019301652908,43.220638275146484,2498.0205078125 0.047672390937805176,43.22065353393555,2503.843505859375 0.04767351597547531,43.220672607421875,2509.78564453125 0.04767487570643425,43.22068786621094,2515.870361328125 0.04767705500125885,43.220703125,2521.864990234375 0.04767901450395584,43.22071838378906,2527.822021484375 0.04767804965376854,43.22073745727539,2534.092041015625 0.04768013581633568,43.22075653076172,2540.505615234375 0.04768207296729088,43.22077560424805,2546.68505859375 0.04768582805991173,43.220794677734375,2552.276123046875 0.04768872633576393,43.22080993652344,2557.601806640625 0.04769021272659302,43.220829010009766,2562.92822265625 0.047691769897937775,43.220848083496094,2568.274658203125 0.047693368047475815,43.22086715698242,2573.507568359375 0.047698862850666046,43.220882415771484,2577.916748046875 0.04770351201295853,43.22089767456055,2581.994384765625 0.04770422354340553,43.220916748046875,2586.5595703125 0.047708604484796524,43.2209358215332,2590.50439453125 0.04771938547492027,43.220951080322266,2592.28759765625 0.047730494290590286,43.22096252441406,2593.824951171875 0.047742217779159546,43.220977783203125,2595.056396484375 0.04775892198085785,43.22098922729492,2595.59375 0.04776880890130997,43.22100067138672,2595.90576171875 0.04777942970395088,43.221012115478516,2596.18701171875 0.04778920114040375,43.22102355957031,2596.28564453125 0.04779814928770065,43.22103500366211,2596.209228515625 0.04780586436390877,43.221046447753906,2595.917236328125 0.047813985496759415,43.2210578918457,2595.35009765625 0.04781997203826904,43.2210693359375,2594.656494140625 0.04782379791140556,43.22107696533203,2593.895263671875 0.04782542586326599,43.22108459472656,2593.051513671875 0.0478251576423645,43.22108840942383,2592.12646484375 0.04782428964972496,43.22109603881836,2591.05615234375 0.04782199487090111,43.221099853515625,2589.8740234375 0.04781905934214592,43.22110366821289,2588.6162109375 0.04781685769557953,43.22111129760742,2587.15283203125 0.04781857877969742,43.22111511230469,2585.404052734375 0.04781932011246681,43.22111892700195,2583.522216796875 0.04782282933592796,43.221126556396484,2581.58203125 0.04782969132065773,43.221134185791016,2579.428466796875 0.04783908650279045,43.22114562988281,2576.9599609375 0.04785151034593582,43.221153259277344,2574.20556640625 0.04786547273397446,43.221160888671875,2571.239013671875 0.047880981117486954,43.221168518066406,2568.1611328125 0.04790203645825386,43.22117614746094,2565.371337890625 0.047925546765327454,43.22117614746094,2563.1142578125 0.04795072227716446,43.22117614746094,2560.4033203125 0.04797583818435669,43.22117233276367,2557.43896484375 0.048001207411289215,43.22117233276367,2554.448486328125 0.048031579703092575,43.221168518066406,2551.448974609375 0.048062149435281754,43.22116470336914,2548.2177734375 0.048093147575855255,43.221160888671875,2544.852783203125 0.04813002422451973,43.221153259277344,2539.352294921875 0.04817171394824982,43.22113800048828,2532.130859375 0.04821305349469185,43.221126556396484,2524.991943359375 0.04825442284345627,43.22111511230469,2518.251953125 0.048295535147190094,43.22110366821289,2511.716796875 0.04834071919322014,43.221092224121094,2505.07421875 0.04838939011096954,43.22108459472656,2499.026123046875 0.04844006896018982,43.2210807800293,2493.047607421875 0.048492178320884705,43.221073150634766,2486.8291015625 0.04854651540517807,43.221065521240234,2480.51025390625 0.048602670431137085,43.22106170654297,2473.870361328125 0.04866165295243263,43.22105407714844,2467.078125 0.048723623156547546,43.22105026245117,2460.098388671875 0.048787131905555725,43.221038818359375,2451.322265625 0.04884092137217522,43.22102737426758,2442.728515625 0.04889727756381035,43.22102355957031,2434.99462890625 0.04895583540201187,43.22101593017578,2427.628662109375 0.049020398408174515,43.221004486083984,2418.89599609375 0.0490865483880043,43.22099304199219,2409.271484375 0.049154747277498245,43.22098159790039,2399.095458984375 0.04922547936439514,43.220970153808594,2388.606201171875 0.04932858794927597,43.220951080322266,2376.03173828125 0.04942161589860916,43.22092819213867,2359.347900390625 0.04951866343617439,43.22090148925781,2341.61181640625 0.04962000623345375,43.22087860107422,2323.13427734375 0.0497286282479763,43.22085189819336,2304.03466796875 0.049840476363897324,43.2208251953125,2284.362548828125 0.04994063079357147,43.220794677734375,2263.2626953125 0.05003185197710991,43.220767974853516,2243.41015625 0.0501256063580513,43.22074508666992,2224.61669921875 0.050386637449264526,43.220699310302734,2196.01953125 0.05064298212528229,43.22063446044922,2153.8623046875 0.05090153217315674,43.22056579589844,2105.44091796875 0.05116661638021469,43.22049331665039,2054.9775390625 0.051235031336545944,43.2204475402832,2014.402587890625 0.05133257433772087,43.22042465209961,1989.3653564453125 0.051434341818094254,43.22041320800781,1972.573486328125 0.05149536207318306,43.22041320800781,1961.8289794921875 0.05156310647726059,43.220420837402344,1956.1619873046875 0.05163281410932541,43.22043228149414,1952.9205322265625 0.05170854926109314,43.2204475402832,1950.5345458984375 0.05178626626729965,43.220462799072266,1948.2916259765625 0.051868587732315063,43.220481872558594,1946.0860595703125 0.0519753023982048,43.220497131347656,1941.9560546875 0.05209873989224434,43.220516204833984,1938.1036376953125 0.05221852660179138,43.22053146362305,1933.1348876953125 0.05233987048268318,43.220550537109375,1927.587646484375 0.05247511714696884,43.220558166503906,1918.406494140625 0.052612170577049255,43.22056579589844,1907.7889404296875 0.05274669826030731,43.22057342529297,1896.130859375 0.052876703441143036,43.22057342529297,1883.8892822265625 0.053010690957307816,43.22056579589844,1864.40087890625 0.05318112298846245,43.22053909301758,1849.6541748046875 0.05334420129656792,43.220497131347656,1837.6748046875 0.0534774474799633,43.220458984375,1826.3985595703125 0.05357510223984718,43.22041702270508,1815.66796875 0.053668126463890076,43.22035598754883,1805.9063720703125 0.05370694398880005,43.220279693603516,1793.75146484375 0.053692955523729324,43.22019958496094,1780.79541015625 0.053638067096471786,43.220096588134766,1764.0701904296875 0.05349861457943916,43.219886779785156,1716.1080322265625 0.05346165969967842,43.21967697143555,1672.4501953125 0.05349075421690941,43.2194938659668,1625.6192626953125 0.0536881648004055,43.21937942504883,1581.8056640625 0.05389341339468956,43.21931838989258,1558.026611328125 0.05386868864297867,43.21931838989258,1530.536865234375 0.05392080545425415,43.219329833984375,1516.3641357421875 0.05396319180727005,43.219337463378906,1511.77197265625 0.05405381694436073,43.21931457519531,1509.90087890625 0.054053813219070435,43.21931076049805,1505.9716796875 0.05408857762813568,43.21930694580078,1504.5394287109375 0.05413316190242767,43.21929931640625,1503.8045654296875 0.05418279394507408,43.21928787231445,1502.723876953125 0.054300468415021896,43.219261169433594,1498.992431640625 0.054416436702013016,43.219234466552734,1492.72314453125 0.054526425898075104,43.21920394897461,1484.59716796875 0.05467648804187775,43.21916198730469,1475.630126953125 0.05482088774442673,43.2191162109375,1462.0791015625 0.05494702234864235,43.21907043457031,1447.5169677734375 0.055051445960998535,43.21902847290039,1432.687255859375 0.055077485740184784,43.218997955322266,1417.802490234375 0.055098991841077805,43.218971252441406,1406.1546630859375 0.05513479560613632,43.218936920166016,1393.550537109375 0.055155474692583084,43.21889877319336,1383.19677734375 0.055156297981739044,43.2188606262207,1373.9384765625 0.055134374648332596,43.218814849853516,1365.45068359375 0.055203359574079514,43.21873092651367,1353.927734375 0.055212024599313736,43.21864700317383,1339.334716796875 0.05505908280611038,43.218597412109375,1321.65185546875 0.05491802468895912,43.21855163574219,1307.932861328125 0.05478517338633537,43.21849822998047,1295.735595703125 0.054722223430871964,43.218441009521484,1270.4608154296875 0.05470437556505203,43.218421936035156,1247.621826171875 0.05475877970457077,43.21842956542969,1223.959716796875 0.054891183972358704,43.218467712402344,1205.5732421875 0.05499434471130371,43.21847915649414,1205.7635498046875 0.055027756839990616,43.218467712402344,1201.252685546875 0.05506276711821556,43.21846008300781,1196.549072265625 0.05514495074748993,43.21845245361328,1190.1358642578125 0.05519331619143486,43.218421936035156,1188.349853515625 0.05519428849220276,43.2183837890625,1183.7615966796875 0.055179983377456665,43.21834182739258,1179.3072509765625 0.0551559254527092,43.218299865722656,1175.0982666015625 0.05512354522943497,43.21826171875,1168.2276611328125 0.055093009024858475,43.218231201171875,1162.093017578125 0.05504443868994713,43.21820068359375,1155.485107421875 0.05500711500644684,43.21818923950195,1146.226318359375 0.05494588240981102,43.21820068359375,1136.51025390625 0.05492014437913895,43.21821212768555,1128.53369140625 0.05491369217634201,43.218223571777344,1121.41748046875 0.0549221895635128,43.21821975708008,1118.6494140625 0.05491273105144501,43.21820831298828,1114.8729248046875 0.05490170419216156,43.21819305419922,1111.0311279296875 0.05491651967167854,43.21817398071289,1107.8095703125 0.05492176488041878,43.21815872192383,1103.3955078125 0.05492769926786423,43.2181510925293,1098.09228515625 0.05490686371922493,43.21818161010742,1084.4830322265625 0.05494927987456322,43.21821594238281,1073.0958251953125
        </coordinates>
      </LineString>
    </Placemark>
  </Document>
</kml>