<?xml version="1.0" encoding="UTF-8"?>
<kml xmlns="http://www.opengis.net/kml/2.2">
  <Document>
    <name>User Predicted Trajectory</name>
    <Style id="predStyle">
      <LineStyle>
        <color>ff0000ff</color>
        <width>2</width>
      </LineStyle>
    </Style>
    <Placemark>
      <name>Path</name>
      <styleUrl>#predStyle</styleUrl>
      <LineString>
        <extrude>1</extrude>
        <tessellate>1</tessellate>
        <altitudeMode>absolute</altitudeMode>
        <coordinates>0.04746774584054947,43.21854019165039,946.1084594726562 0.04645341634750366,43.21889877319336,886.3558349609375 0.04661921411752701,43.21894454956055,962.2713623046875 0.046330779790878296,43.21894836425781,1060.07421875 0.04628370329737663,43.21915817260742,861.169921875 0.04625754430890083,43.21908950805664,1023.5993041992188 0.04626450315117836,43.21919631958008,871.9754638671875 0.04623453691601753,43.21916580200195,1054.98779296875 0.04625150188803673,43.21923828125,884.798583984375 0.04620897397398949,43.21922302246094,1071.86669921875 0.0462372861802578,43.21926498413086,891.4420166015625 0.04618123918771744,43.21926498413086,1081.761962890625 0.04622425138950348,43.21928405761719,895.7459716796875 0.04615698754787445,43.219295501708984,1088.975341796875 0.04621375724673271,43.219295501708984,898.737060546875 0.046138834208250046,43.21931838989258,1093.755615234375 0.04620615020394325,43.219303131103516,900.476806640625 0.046126119792461395,43.21933364868164,1096.376220703125 0.046200722455978394,43.21931076049805,901.2559814453125 0.04611695930361748,43.21934127807617,1097.55859375 0.046196624636650085,43.21931457519531,901.469970703125 0.04610989987850189,43.2193489074707,1097.95751953125 0.046193331480026245,43.21931838989258,901.41650390625 0.046104274690151215,43.219356536865234,1097.9632568359375 0.046190619468688965,43.21931838989258,901.221435546875 0.046099912375211716,43.2193603515625,1097.693115234375 0.04618837311863899,43.219322204589844,900.8724365234375 0.046096596866846085,43.219364166259766,1097.1475830078125 0.04618623107671738,43.219322204589844,900.40185546875 0.04609331116080284,43.21936798095703,1096.6126708984375 0.04618329182267189,43.21932601928711,900.1505126953125 0.04609250649809837,43.21936798095703,1097.423583984375 0.04618319869041443,43.21932601928711,900.54736328125 0.04609096050262451,43.21936798095703,1097.1103515625 0.04618388041853905,43.21932601928711,900.9786376953125 0.04608969762921333,43.2193717956543,1097.413330078125 0.046183083206415176,43.21932601928711,901.2674560546875 0.04608835279941559,43.2193717956543,1097.80712890625 0.04618232697248459,43.21932601928711,901.5361328125 0.04608701542019844,43.2193717956543,1098.190185546875 0.04618167132139206,43.21932601928711,901.7593994140625 0.04608586058020592,43.21937561035156,1098.5045166015625 0.046181123703718185,43.21932601928711,901.9423828125 0.04608490318059921,43.21937561035156,1098.7626953125 0.04618067294359207,43.21932601928711,902.093505859375 0.046084120869636536,43.21937561035156,1098.97607421875 0.04618030786514282,43.219329833984375,902.218017578125 0.0460834838449955,43.21937561035156,1099.15185546875 0.046180009841918945,43.219329833984375,902.321044921875 0.046082958579063416,43.21937561035156,1099.2965087890625 0.04617976397275925,43.219329833984375,902.4053955078125 0.04608253017067909,43.21937561035156,1099.4154052734375 0.04617956280708313,43.219329833984375,902.474853515625 0.04608217626810074,43.21937561035156,1099.512939453125 0.04617939889431,43.219329833984375,902.531494140625 0.04608188197016716,43.21937561035156,1099.5924072265625 0.046179261058568954,43.219329833984375,902.578125 0.04608164355158806,43.21937942504883,1099.65771484375 0.04617914929986,43.219329833984375,902.6162109375 0.04608144611120224,43.21937942504883,1099.7109375 0.04617905616760254,43.219329833984375,902.647216796875 0.04608128219842911,43.21937942504883,1099.7548828125 0.04617897793650627,43.219329833984375,902.6734619140625 0.046081144362688065,43.21937942504883,1099.791259765625 0.0461789146065712,43.219329833984375,902.6947021484375 0.04608103260397911,43.21937942504883,1099.820556640625 0.04617886245250702,43.219329833984375,902.7117919921875 0.04608094319701195,43.21937942504883,1099.8446044921875 0.046178821474313736,43.219329833984375,902.7257080078125 0.04608087241649628,43.21937942504883,1099.8642578125 0.04617878422141075,43.219329833984375,902.7373046875 0.0460808128118515,43.21937942504883,1099.88037109375 0.04617875814437866,43.219329833984375,902.7467041015625 0.04608076065778732,43.21937942504883,1099.8935546875 0.04617873579263687,43.219329833984375,902.7545166015625 0.04608072340488434,43.21937942504883,1099.904296875 0.04617871344089508,43.219329833984375,902.7608642578125 0.04608068987727165,43.21937942504883,1099.9132080078125 0.04617869853973389,43.219329833984375,902.766357421875 0.046080660074949265,43.21937942504883,1099.9205322265625 0.04617868736386299,43.219329833984375,902.7703857421875 0.046080637723207474,43.21937942504883,1099.9266357421875 0.046178676187992096,43.219329833984375,902.7738037109375 0.04608061909675598,43.21937942504883,1099.931396484375 0.0461786687374115,43.219329833984375,902.7767333984375 0.04608060419559479,43.21937942504883,1099.935546875 0.0461786612868309,43.219329833984375,902.7791748046875 0.04608059301972389,43.21937942504883,1099.93896484375 0.046178653836250305,43.219329833984375,902.7811279296875 0.046080581843853,43.21937942504883,1099.9412841796875 0.04617865011096001,43.219329833984375,902.7825927734375 0.0460805743932724,43.21937942504883,1099.943603515625 0.04617864638566971,43.219329833984375,902.783935546875 0.0460805669426918,43.21937942504883,1099.9454345703125 0.04617864266037941,43.219329833984375,902.7850341796875 0.046080563217401505,43.21937942504883,1099.947021484375 0.04617863893508911,43.219329833984375,902.7857666015625 0.04608055576682091,43.21937942504883,1099.9481201171875 0.04617863893508911,43.219329833984375,902.786376953125 0.04608055204153061,43.21937942504883,1099.948974609375 0.04617863520979881,43.219329833984375,902.7869873046875 0.04608055204153061,43.21937942504883,1099.9498291015625 0.04617863520979881,43.219329833984375,902.7874755859375 0.04608054831624031,43.21937942504883,1099.950439453125 0.04617863520979881,43.219329833984375,902.787841796875 0.04608054459095001,43.21937942504883,1099.950927734375 0.046178631484508514,43.219329833984375,902.7879638671875 0.04608054459095001,43.21937942504883,1099.951171875 0.046178631484508514,43.219329833984375,902.7882080078125 0.04608054459095001,43.21937942504883,1099.95166015625 0.046178631484508514,43.219329833984375,902.788330078125 0.046080540865659714,43.21937942504883,1099.951904296875 0.046178631484508514,43.219329833984375,902.78857421875 0.046080540865659714,43.21937942504883,1099.951904296875 0.046178631484508514,43.219329833984375,902.78857421875 0.046080540865659714,43.21937942504883,1099.951904296875 0.046178631484508514,43.219329833984375,902.78857421875 0.046080540865659714,43.21937942504883,1099.9522705078125 0.046178631484508514,43.219329833984375,902.7886962890625 0.046080540865659714,43.21937942504883,1099.9522705078125 0.046178631484508514,43.219329833984375,902.788818359375 0.046080540865659714,43.21937942504883,1099.952392578125 0.046178631484508514,43.219329833984375,902.788818359375 0.046080540865659714,43.21937942504883,1099.952392578125 0.046178631484508514,43.219329833984375,902.7886962890625 0.046080540865659714,43.21937942504883,1099.9525146484375 0.046178631484508514,43.219329833984375,902.788818359375 0.046080540865659714,43.21937942504883,1099.952392578125 0.046178631484508514,43.219329833984375,902.788818359375 0.046080540865659714,43.21937942504883,1099.9522705078125 0.046178631484508514,43.219329833984375,902.788818359375 0.046080537140369415,43.21937942504883,1099.9525146484375 0.046178631484508514,43.219329833984375,902.7886962890625 0.046080537140369415,43.21937942504883,1099.9522705078125 0.046178631484508514,43.219329833984375,902.7886962890625 0.046080540865659714,43.21937942504883,1099.9522705078125 0.046178631484508514,43.219329833984375,902.7886962890625 0.046080540865659714,43.21937942504883,1099.9522705078125 0.046178631484508514,43.219329833984375,902.7886962890625 0.046080537140369415,43.21937942504883,1099.9522705078125 0.046178631484508514,43.219329833984375,902.7886962890625 0.046080537140369415,43.21937942504883,1099.9521484375 0.046178631484508514,43.219329833984375,902.78857421875 0.046080540865659714,43.21937942504883,1099.9520263671875 0.046178631484508514,43.219329833984375,902.7884521484375 0.046080540865659714,43.21937942504883,1099.9520263671875 0.046178631484508514,43.219329833984375,902.788330078125 0.046080540865659714,43.21937942504883,1099.951904296875 0.046178631484508514,43.219329833984375,902.7882080078125 0.046080540865659714,43.21937942504883,1099.951904296875 0.046178631484508514,43.219329833984375,902.7882080078125 0.046080540865659714,43.21937942504883,1099.95166015625 0.046178631484508514,43.219329833984375,902.7882080078125 0.046080540865659714,43.21937942504883,1099.951904296875 0.046178631484508514,43.219329833984375,902.7882080078125 0.046080540865659714,43.21937942504883,1099.95166015625 0.046178631484508514,43.219329833984375,902.7880859375 0.046080540865659714,43.21937942504883,1099.951416015625 0.046178631484508514,43.219329833984375,902.7879638671875 0.046080540865659714,43.21937942504883,1099.95166015625 0.046178631484508514,43.219329833984375,902.7879638671875 0.046080540865659714,43.21937942504883,1099.951416015625 0.046178631484508514,43.219329833984375,902.7879638671875 0.046080540865659714,43.21937942504883,1099.951416015625 0.046178631484508514,43.219329833984375,902.7879638671875 0.046080540865659714,43.21937942504883,1099.951416015625 0.046178631484508514,43.219329833984375,902.7879638671875 0.046080540865659714,43.21937942504883,1099.951171875 0.046178631484508514,43.219329833984375,902.7879638671875 0.046080540865659714,43.21937942504883,1099.951171875 0.046178631484508514,43.219329833984375,902.787841796875 0.046080540865659714,43.21937942504883,1099.951171875 0.046178631484508514,43.219329833984375,902.787841796875 0.046080540865659714,43.21937942504883,1099.950927734375 0.046178631484508514,43.219329833984375,902.7877197265625 0.046080540865659714,43.21937942504883,1099.951171875 0.046178631484508514,43.219329833984375,902.787841796875 0.046080540865659714,43.21937942504883,1099.950927734375 0.046178631484508514,43.219329833984375,902.7877197265625 0.046080540865659714,43.21937942504883,1099.950927734375 0.046178631484508514,43.219329833984375,902.78759765625 0.046080540865659714,43.21937942504883,1099.95068359375 0.046178631484508514,43.219329833984375,902.78759765625 0.046080540865659714,43.21937942504883,1099.95068359375 0.046178631484508514,43.219329833984375,902.7874755859375 0.046080540865659714,43.21937942504883,1099.95068359375 0.046178631484508514,43.219329833984375,902.7874755859375 0.046080540865659714,43.21937942504883,1099.95068359375 0.046178631484508514,43.219329833984375,902.7874755859375 0.046080540865659714,43.21937942504883,1099.950439453125 0.046178631484508514,43.219329833984375,902.787353515625 0.046080540865659714,43.21937942504883,1099.950439453125 0.046178631484508514,43.219329833984375,902.7872314453125 0.046080540865659714,43.21937942504883,1099.950439453125 0.046178631484508514,43.219329833984375,902.7872314453125 0.046080540865659714,43.21937942504883,1099.9503173828125 0.046178631484508514,43.219329833984375,902.787109375 0.046080540865659714,43.21937942504883,1099.9501953125 0.046178631484508514,43.219329833984375,902.787109375 0.046080540865659714,43.21937942504883,1099.9500732421875 0.046178631484508514,43.219329833984375,902.787109375 0.046080540865659714,43.21937942504883,1099.9500732421875 0.046178631484508514,43.219329833984375,902.7869873046875 0.04608054459095001,43.21937942504883,1099.949951171875 0.046178631484508514,43.219329833984375,902.7869873046875 0.04608054459095001,43.21937942504883,1099.9498291015625 0.046178631484508514,43.219329833984375,902.786865234375 0.04608054459095001,43.21937942504883,1099.9498291015625 0.046178631484508514,43.219329833984375,902.786865234375 0.04608054459095001,43.21937942504883,1099.9498291015625 0.046178631484508514,43.219329833984375,902.7867431640625 0.04608054459095001,43.21937942504883,1099.94970703125 0.046178631484508514,43.219329833984375,902.7867431640625 0.04608054459095001,43.21937942504883,1099.94970703125 0.046178631484508514,43.219329833984375,902.78662109375 0.04608054459095001,43.21937942504883,1099.949462890625 0.046178631484508514,43.219329833984375,902.78662109375 0.04608054459095001,43.21937942504883,1099.949462890625 0.046178631484508514,43.219329833984375,902.7864990234375 0.04608054459095001,43.21937942504883,1099.949462890625 0.04617863520979881,43.219329833984375,902.7864990234375 0.04608054459095001,43.21937942504883,1099.94921875 0.046178631484508514,43.219329833984375,902.7864990234375 0.04608054459095001,43.21937942504883,1099.94921875 0.04617863520979881,43.219329833984375,902.786376953125 0.04608054459095001,43.21937942504883,1099.94921875 0.04617863520979881,43.219329833984375,902.7864990234375 0.04608054459095001,43.21937942504883,1099.94921875 0.04617863520979881,43.219329833984375,902.786376953125 0.04608054459095001,43.21937942504883,1099.948974609375 0.04617863520979881,43.219329833984375,902.786376953125 0.04608054459095001,43.21937942504883,1099.948974609375 0.04617863520979881,43.219329833984375,902.7862548828125 0.04608054459095001,43.21937942504883,1099.948974609375 0.04617863520979881,43.219329833984375,902.7861328125 0.04608054459095001,43.21937942504883,1099.948974609375 0.04617863520979881,43.219329833984375,902.7862548828125 0.04608054459095001,43.21937942504883,1099.948974609375 0.04617863520979881,43.219329833984375,902.7862548828125 0.04608054459095001,43.21937942504883,1099.94873046875 0.04617863520979881,43.219329833984375,902.7862548828125 0.04608054459095001,43.21937942504883,1099.94873046875 0.04617863520979881,43.219329833984375,902.7860107421875 0.04608054459095001,43.21937942504883,1099.94873046875 0.04617863520979881,43.219329833984375,902.7860107421875 0.04608054459095001,43.21937942504883,1099.9486083984375 0.04617863520979881,43.219329833984375,902.785888671875 0.04608054459095001,43.21937942504883,1099.9486083984375 0.04617863520979881,43.219329833984375,902.785888671875 0.04608054459095001,43.21937942504883,1099.9486083984375 0.04617863520979881,43.219329833984375,902.785888671875 0.04608054459095001,43.21937942504883,1099.9483642578125 0.04617863520979881,43.219329833984375,902.7857666015625 0.04608054459095001,43.21937942504883,1099.9482421875 0.04617863520979881,43.219329833984375,902.7857666015625 0.04608054459095001,43.21937942504883,1099.9482421875 0.04617863520979881,43.219329833984375,902.7857666015625 0.04608054459095001,43.21937942504883,1099.9481201171875 0.04617863520979881,43.219329833984375,902.7857666015625 0.04608054459095001,43.21937942504883,1099.9481201171875 0.04617863520979881,43.219329833984375,902.78564453125 0.04608054459095001,43.21937942504883,1099.9481201171875 0.04617863520979881,43.219329833984375,902.7857666015625 0.04608054459095001,43.21937942504883,1099.947998046875 0.04617863520979881,43.219329833984375,902.78564453125 0.04608054459095001,43.21937942504883,1099.947998046875 0.04617863520979881,43.219329833984375,902.78564453125 0.04608054831624031,43.21937942504883,1099.9478759765625 0.04617863520979881,43.219329833984375,902.7855224609375 0.04608054459095001,43.21937942504883,1099.9478759765625 0.04617863520979881,43.219329833984375,902.7855224609375 0.04608054831624031,43.21937942504883,1099.94775390625 0.04617863520979881,43.219329833984375,902.785400390625 0.04608054831624031,43.21937942504883,1099.9476318359375 0.04617863520979881,43.219329833984375,902.785400390625 0.04608054831624031,43.21937942504883,1099.947509765625 0.04617863520979881,43.219329833984375,902.785400390625 0.04608054831624031,43.21937942504883,1099.9476318359375 0.04617863520979881,43.219329833984375,902.7852783203125 0.04608054831624031,43.21937942504883,1099.947509765625 0.04617863520979881,43.219329833984375,902.78515625 0.04608054831624031,43.21937942504883,1099.947509765625 0.04617863520979881,43.219329833984375,902.78515625 0.04608054831624031,43.21937942504883,1099.947265625 0.04617863520979881,43.219329833984375,902.78515625 0.04608054831624031,43.21937942504883,1099.947265625 0.04617863520979881,43.219329833984375,902.784912109375 0.04608054831624031,43.21937942504883,1099.947265625 0.04617863520979881,43.219329833984375,902.784912109375 0.04608054831624031,43.21937942504883,1099.94677734375 0.04617863520979881,43.219329833984375,902.784912109375 0.04608054831624031,43.21937942504883,1099.947021484375 0.04617863520979881,43.219329833984375,902.7847900390625 0.04608054831624031,43.21937942504883,1099.947021484375 0.04617863520979881,43.219329833984375,902.7847900390625 0.04608054831624031,43.21937942504883,1099.947021484375 0.04617863520979881,43.219329833984375,902.7847900390625 0.04608054831624031,43.21937942504883,1099.946533203125 0.04617863520979881,43.219329833984375,902.78466796875 0.04608054831624031,43.21937942504883,1099.946533203125 0.04617863520979881,43.219329833984375,902.78466796875 0.04608054831624031,43.21937942504883,1099.94677734375 0.04617863520979881,43.219329833984375,902.78466796875 0.04608054831624031,43.21937942504883,1099.946533203125 0.04617863520979881,43.219329833984375,902.784423828125 0.04608054831624031,43.21937942504883,1099.946533203125 0.04617863520979881,43.219329833984375,902.784423828125 0.04608054831624031,43.21937942504883,1099.9462890625 0.04617863520979881,43.219329833984375,902.7843017578125 0.04608054831624031,43.21937942504883,1099.9462890625 0.04617863520979881,43.219329833984375,902.7843017578125 0.04608054831624031,43.21937942504883,1099.9462890625 0.04617863520979881,43.219329833984375,902.7841796875 0.04608054831624031,43.21937942504883,1099.9461669921875 0.04617863520979881,43.219329833984375,902.7841796875 0.04608054831624031,43.21937942504883,1099.946044921875 0.04617863893508911,43.219329833984375,902.7841796875 0.04608054831624031,43.21937942504883,1099.946044921875 0.04617863893508911,43.219329833984375,902.7841796875 0.04608054831624031,43.21937942504883,1099.9459228515625 0.04617863893508911,43.219329833984375,902.7840576171875 0.04608054831624031,43.21937942504883,1099.94580078125 0.04617863893508911,43.219329833984375,902.7840576171875 0.04608054831624031,43.21937942504883,1099.94580078125 0.04617863893508911,43.219329833984375,902.7840576171875 0.04608055204153061,43.21937942504883,1099.9456787109375 0.04617863893508911,43.219329833984375,902.7840576171875 0.04608055204153061,43.21937942504883,1099.945556640625 0.04617863893508911,43.219329833984375,902.783935546875 0.04608055204153061,43.21937942504883,1099.945556640625 0.04617863893508911,43.219329833984375,902.7838134765625 0.04608055204153061,43.21937942504883,1099.945556640625 0.04617863893508911,43.219329833984375,902.7838134765625 0.04608055204153061,43.21937942504883,1099.9454345703125 0.04617863893508911,43.219329833984375,902.78369140625 0.04608055204153061,43.21937942504883,1099.9453125 0.04617863893508911,43.219329833984375,902.7835693359375 0.04608055204153061,43.21937942504883,1099.9453125 0.04617863893508911,43.219329833984375,902.7835693359375 0.04608055204153061,43.21937942504883,1099.9453125 0.04617863893508911,43.219329833984375,902.7835693359375 0.04608055204153061,43.21937942504883,1099.945068359375 0.04617863893508911,43.219329833984375,902.783447265625 0.04608055204153061,43.21937942504883,1099.945068359375 0.04617863893508911,43.219329833984375,902.783447265625 0.04608055204153061,43.21937942504883,1099.945068359375 0.04617863893508911,43.219329833984375,902.783447265625 0.04608055204153061,43.21937942504883,1099.94482421875 0.04617863893508911,43.219329833984375,902.7833251953125 0.04608055204153061,43.21937942504883,1099.94482421875 0.04617863893508911,43.219329833984375,902.783447265625 0.04608055204153061,43.21937942504883,1099.94482421875 0.04617863893508911,43.219329833984375,902.7833251953125 0.04608055204153061,43.21937942504883,1099.94482421875 0.04617863893508911,43.219329833984375,902.7833251953125 0.04608055204153061,43.21937942504883,1099.94482421875 0.04617863893508911,43.219329833984375,902.7833251953125 0.04608055204153061,43.21937942504883,1099.944580078125 0.04617863893508911,43.219329833984375,902.7833251953125 0.04608055204153061,43.21937942504883,1099.944580078125 0.04617863893508911,43.219329833984375,902.7833251953125 0.04608055204153061,43.21937942504883,1099.944580078125 0.04617863893508911,43.219329833984375,902.783203125 0.04608055204153061,43.21937942504883,1099.944580078125 0.04617863893508911,43.219329833984375,902.783203125 0.04608055204153061,43.21937942504883,1099.944580078125 0.04617863893508911,43.219329833984375,902.7830810546875 0.04608055204153061,43.21937942504883,1099.9443359375 0.04617863893508911,43.219329833984375,902.782958984375 0.04608055204153061,43.21937942504883,1099.9443359375 0.04617863893508911,43.219329833984375,902.7830810546875 0.04608055204153061,43.21937942504883,1099.9442138671875 0.04617863893508911,43.219329833984375,902.7828369140625 0.04608055204153061,43.21937942504883,1099.9442138671875 0.04617863893508911,43.219329833984375,902.7828369140625 0.04608055204153061,43.21937942504883,1099.9442138671875 0.04617863893508911,43.219329833984375,902.7828369140625 0.04608055204153061,43.21937942504883,1099.9439697265625 0.04617863893508911,43.219329833984375,902.7828369140625 0.04608055204153061,43.21937942504883,1099.9439697265625 0.04617863893508911,43.219329833984375,902.78271484375 0.04608055204153061,43.21937942504883,1099.94384765625 0.04617863893508911,43.219329833984375,902.78271484375 0.04608055204153061,43.21937942504883,1099.94384765625 0.04617863893508911,43.219329833984375,902.782470703125 0.04608055204153061,43.21937942504883,1099.9437255859375 0.04617863893508911,43.219329833984375,902.782470703125 0.04608055204153061,43.21937942504883,1099.9434814453125 0.04617863893508911,43.219329833984375,902.7823486328125 0.04608055576682091,43.21937942504883,1099.9434814453125 0.04617863893508911,43.219329833984375,902.7823486328125 0.04608055576682091,43.21937942504883,1099.9434814453125 0.04617863893508911,43.219329833984375,902.7823486328125 0.04608055576682091,43.21937942504883,1099.943359375 0.04617863893508911,43.219329833984375,902.7823486328125 0.04608055576682091,43.21937942504883,1099.9432373046875 0.04617863893508911,43.219329833984375,902.7822265625 0.04608055576682091,43.21937942504883,1099.9432373046875 0.04617863893508911,43.219329833984375,902.7821044921875 0.04608055576682091,43.21937942504883,1099.943115234375 0.04617863893508911,43.219329833984375,902.7821044921875 0.04608055576682091,43.21937942504883,1099.943115234375 0.04617863893508911,43.219329833984375,902.781982421875 0.04608055576682091,43.21937942504883,1099.94287109375 0.04617863893508911,43.219329833984375,902.781982421875 0.04608055576682091,43.21937942504883,1099.94287109375 0.04617863893508911,43.219329833984375,902.781982421875 0.04608055576682091,43.21937942504883,1099.94287109375 0.04617864266037941,43.219329833984375,902.78173828125 0.04608055576682091,43.21937942504883,1099.942626953125 0.04617864266037941,43.219329833984375,902.78173828125 0.04608055576682091,43.21937942504883,1099.942626953125 0.04617864266037941,43.219329833984375,902.78173828125 0.04608055576682091,43.21937942504883,1099.942626953125 0.04617864266037941,43.219329833984375,902.7816162109375 0.04608055576682091,43.21937942504883,1099.942626953125 0.04617864266037941,43.219329833984375,902.7816162109375 0.04608055576682091,43.21937942504883,1099.942626953125 0.04617864266037941,43.219329833984375,902.781494140625 0.04608055576682091,43.21937942504883,1099.9423828125 0.04617864266037941,43.219329833984375,902.781494140625 0.04608055576682091,43.21937942504883,1099.9423828125 0.04617864266037941,43.219329833984375,902.781494140625 0.04608055576682091,43.21937942504883,1099.9423828125 0.04617864266037941,43.219329833984375,902.781494140625 0.04608055576682091,43.21937942504883,1099.942138671875 0.04617864266037941,43.219329833984375,902.7813720703125 0.04608055576682091,43.21937942504883,1099.942138671875 0.04617864266037941,43.219329833984375,902.7813720703125 0.04608055576682091,43.21937942504883,1099.9420166015625 0.04617864266037941,43.219329833984375,902.7813720703125 0.04608055576682091,43.21937942504883,1099.9420166015625 0.04617864266037941,43.219329833984375,902.78125 0.04608055576682091,43.21937942504883,1099.94189453125 0.04617864266037941,43.219329833984375,902.78125 0.04608055576682091,43.21937942504883,1099.94189453125 0.04617864266037941,43.219329833984375,902.78125 0.04608055576682091,43.21937942504883,1099.9417724609375 0.04617864266037941,43.219329833984375,902.7811279296875 0.046080559492111206,43.21937942504883,1099.941650390625 0.04617864266037941,43.219329833984375,902.7811279296875 0.046080559492111206,43.21937942504883,1099.9415283203125 0.04617864266037941,43.219329833984375,902.7811279296875 0.046080559492111206,43.21937942504883,1099.9415283203125 0.04617864266037941,43.219329833984375,902.781005859375 0.046080559492111206,43.21937942504883,1099.94140625 0.04617864266037941,43.219329833984375,902.781005859375 0.046080559492111206,43.21937942504883,1099.9412841796875 0.04617864266037941,43.219329833984375,902.781005859375 0.046080559492111206,43.21937942504883,1099.9412841796875 0.04617864266037941,43.219329833984375,902.7808837890625 0.046080559492111206,43.21937942504883,1099.9412841796875 0.04617864266037941,43.219329833984375,902.7808837890625 0.046080559492111206,43.21937942504883,1099.9412841796875 0.04617864266037941,43.219329833984375,902.78076171875 0.046080559492111206,43.21937942504883,1099.941162109375 0.04617864266037941,43.219329833984375,902.78076171875 0.046080559492111206,43.21937942504883,1099.941162109375 0.04617864266037941,43.219329833984375,902.7806396484375 0.046080559492111206,43.21937942504883,1099.9410400390625 0.04617864266037941,43.219329833984375,902.7806396484375 0.046080559492111206,43.21937942504883,1099.9410400390625 0.04617864266037941,43.219329833984375,902.7803955078125 0.046080559492111206,43.21937942504883,1099.9410400390625 0.04617864266037941,43.219329833984375,902.7803955078125 0.046080559492111206,43.21937942504883,1099.94091796875 0.04617864266037941,43.219329833984375,902.7803955078125 0.046080559492111206,43.21937942504883,1099.94091796875 0.04617864266037941,43.219329833984375,902.780517578125 0.046080559492111206,43.21937942504883,1099.940673828125 0.04617864266037941,43.219329833984375,902.7802734375 0.046080559492111206,43.21937942504883,1099.9404296875 0.04617864266037941,43.219329833984375,902.7802734375 0.046080559492111206,43.21937942504883,1099.940673828125 0.04617864266037941,43.219329833984375,902.7801513671875 0.046080559492111206,43.21937942504883,1099.9404296875 0.04617864266037941,43.219329833984375,902.780029296875 0.046080559492111206,43.21937942504883,1099.9404296875 0.04617864266037941,43.219329833984375,902.780029296875 0.046080559492111206,43.21937942504883,1099.9404296875 0.04617864266037941,43.219329833984375,902.7801513671875 0.046080559492111206,43.21937942504883,1099.940185546875 0.04617864266037941,43.219329833984375,902.780029296875 0.046080559492111206,43.21937942504883,1099.940185546875 0.04617864266037941,43.219329833984375,902.7799072265625 0.046080559492111206,43.21937942504883,1099.940185546875 0.04617864266037941,43.219329833984375,902.7799072265625 0.046080559492111206,43.21937942504883,1099.93994140625 0.04617864266037941,43.219329833984375,902.77978515625 0.046080559492111206,43.21937942504883,1099.93994140625 0.04617864266037941,43.219329833984375,902.77978515625 0.046080559492111206,43.21937942504883,1099.93994140625 0.04617864266037941,43.219329833984375,902.7796630859375 0.046080559492111206,43.21937942504883,1099.9398193359375 0.04617864266037941,43.219329833984375,902.7796630859375 0.046080559492111206,43.21937942504883,1099.9398193359375 0.04617864266037941,43.219329833984375,902.7796630859375 0.046080559492111206,43.21937942504883,1099.9398193359375 0.04617864266037941,43.219329833984375,902.7794189453125 0.046080559492111206,43.21937942504883,1099.939697265625 0.04617864266037941,43.219329833984375,902.779541015625 0.046080559492111206,43.21937942504883,1099.939697265625 0.04617864638566971,43.219329833984375,902.779296875 0.046080559492111206,43.21937942504883,1099.939453125 0.04617864638566971,43.219329833984375,902.779296875 0.046080563217401505,43.21937942504883,1099.9393310546875 0.04617864638566971,43.219329833984375,902.779296875 0.046080563217401505,43.21937942504883,1099.939208984375 0.04617864638566971,43.219329833984375,902.779296875 0.046080563217401505,43.21937942504883,1099.939208984375 0.04617864638566971,43.219329833984375,902.779296875 0.046080563217401505,43.21937942504883,1099.939208984375 0.04617864638566971,43.219329833984375,902.7791748046875 0.046080563217401505,43.21937942504883,1099.9390869140625 0.04617864638566971,43.219329833984375,902.779052734375 0.046080563217401505,43.21937942504883,1099.93896484375 0.04617864638566971,43.219329833984375,902.779052734375 0.046080563217401505,43.21937942504883,1099.93896484375 0.04617864638566971,43.219329833984375,902.779052734375 0.046080563217401505,43.21937942504883,1099.93896484375 0.04617864638566971,43.219329833984375,902.7789306640625 0.046080563217401505,43.21937942504883,1099.93896484375 0.04617864638566971,43.219329833984375,902.77880859375 0.046080563217401505,43.21937942504883,1099.938720703125 0.04617864638566971,43.219329833984375,902.7789306640625 0.046080563217401505,43.21937942504883,1099.938720703125 0.04617864638566971,43.219329833984375,902.7789306640625 0.046080563217401505,43.21937942504883,1099.938720703125 0.04617864638566971,43.219329833984375,902.7786865234375 0.046080563217401505,43.21937942504883,1099.938720703125 0.04617864638566971,43.219329833984375,902.77880859375 0.046080563217401505,43.21937942504883,1099.9384765625 0.04617864638566971,43.219329833984375,902.7786865234375 0.046080563217401505,43.21937942504883,1099.938232421875 0.04617864638566971,43.219329833984375,902.7786865234375 0.046080563217401505,43.21937942504883,1099.9384765625 0.04617864638566971,43.219329833984375,902.7784423828125 0.046080563217401505,43.21937942504883,1099.938232421875 0.04617864638566971,43.219329833984375,902.7784423828125 0.046080563217401505,43.21937942504883,1099.938232421875 0.04617864638566971,43.219329833984375,902.7783203125 0.046080563217401505,43.21937942504883,1099.93798828125 0.04617864638566971,43.219329833984375,902.7783203125 0.046080563217401505,43.21937942504883,1099.93798828125 0.04617864638566971,43.219329833984375,902.7781982421875 0.046080563217401505,43.21937942504883,1099.93798828125 0.04617864638566971,43.219329833984375,902.7781982421875 0.046080563217401505,43.21937942504883,1099.937744140625 0.04617864638566971,43.219329833984375,902.7781982421875 0.046080563217401505,43.21937942504883,1099.937744140625 0.04617864638566971,43.219329833984375,902.7781982421875 0.046080563217401505,43.21937942504883,1099.937744140625 0.04617864638566971,43.219329833984375,902.778076171875 0.046080563217401505,43.21937942504883,1099.937744140625 0.04617864638566971,43.219329833984375,902.7779541015625 0.046080563217401505,43.21937942504883,1099.9376220703125 0.04617864638566971,43.219329833984375,902.7779541015625 0.046080563217401505,43.21937942504883,1099.9376220703125 0.04617864638566971,43.219329833984375,902.7779541015625 0.046080563217401505,43.21937942504883,1099.9375 0.04617864638566971,43.219329833984375,902.7779541015625 0.046080563217401505,43.21937942504883,1099.9375 0.04617864638566971,43.219329833984375,902.77783203125 0.046080563217401505,43.21937942504883,1099.937255859375 0.04617864638566971,43.219329833984375,902.7777099609375 0.046080563217401505,43.21937942504883,1099.937255859375 0.04617864638566971,43.219329833984375,902.7777099609375 0.0460805669426918,43.21937942504883,1099.937255859375 0.04617864638566971,43.219329833984375,902.777587890625 0.0460805669426918,43.21937942504883,1099.937255859375 0.04617864638566971,43.219329833984375,902.777587890625 0.0460805669426918,43.21937942504883,1099.93701171875 0.04617864638566971,43.219329833984375,902.7774658203125 0.0460805669426918,43.21937942504883,1099.936767578125 0.04617864638566971,43.219329833984375,902.77734375 0.0460805669426918,43.21937942504883,1099.9368896484375 0.04617864638566971,43.219329833984375,902.77734375 0.0460805669426918,43.21937942504883,1099.936767578125 0.04617864638566971,43.219329833984375,902.77734375 0.0460805669426918,43.21937942504883,1099.936767578125 0.04617865011096001,43.219329833984375,902.7772216796875 0.0460805669426918,43.21937942504883,1099.9365234375 0.04617864638566971,43.219329833984375,902.7772216796875 0.0460805669426918,43.21937942504883,1099.9365234375 0.04617864638566971,43.219329833984375,902.7772216796875 0.0460805669426918,43.21937942504883,1099.9365234375 0.04617865011096001,43.219329833984375,902.7772216796875 0.0460805669426918,43.21937942504883,1099.9365234375 0.04617865011096001,43.219329833984375,902.777099609375 0.0460805669426918,43.21937942504883,1099.936279296875 0.04617865011096001,43.219329833984375,902.777099609375 0.0460805669426918,43.21937942504883,1099.936279296875 0.04617865011096001,43.219329833984375,902.777099609375 0.0460805669426918,43.21937942504883,1099.936279296875 0.04617865011096001,43.219329833984375,902.7769775390625 0.0460805669426918,43.21937942504883,1099.93603515625 0.04617865011096001,43.219329833984375,902.777099609375 0.0460805669426918,43.21937942504883,1099.93603515625 0.04617865011096001,43.219329833984375,902.77685546875 0.0460805669426918,43.21937942504883,1099.93603515625 0.04617865011096001,43.219329833984375,902.77685546875 0.0460805669426918,43.21937942504883,1099.93603515625 0.04617865011096001,43.219329833984375,902.7767333984375 0.0460805669426918,43.21937942504883,1099.93603515625 0.04617865011096001,43.219329833984375,902.7767333984375 0.0460805669426918,43.21937942504883,1099.935791015625 0.04617865011096001,43.219329833984375,902.7767333984375 0.0460805669426918,43.21937942504883,1099.935791015625 0.04617865011096001,43.219329833984375,902.776611328125 0.0460805669426918,43.21937942504883,1099.9356689453125 0.04617865011096001,43.219329833984375,902.7764892578125 0.0460805669426918,43.21937942504883,1099.935546875 0.04617865011096001,43.219329833984375,902.7764892578125 0.0460805669426918,43.21937942504883,1099.935546875 0.04617865011096001,43.219329833984375,902.7764892578125 0.0460805669426918,43.21937942504883,1099.935546875 0.04617865011096001,43.219329833984375,902.7764892578125 0.0460805669426918,43.21937942504883,1099.935546875 0.04617865011096001,43.219329833984375,902.7763671875 0.0460805669426918,43.21937942504883,1099.9354248046875 0.04617865011096001,43.219329833984375,902.7763671875 0.0460805706679821,43.21937942504883,1099.9351806640625 0.04617865011096001,43.219329833984375,902.7762451171875 0.0460805706679821,43.21937942504883,1099.93505859375 0.04617865011096001,43.219329833984375,902.7762451171875 0.0460805706679821,43.21937942504883,1099.93505859375 0.04617865011096001,43.219329833984375,902.7762451171875 0.0460805706679821,43.21937942504883,1099.93505859375 0.04617865011096001,43.219329833984375,902.776123046875 0.0460805706679821,43.21937942504883,1099.9349365234375 0.04617865011096001,43.219329833984375,902.776123046875 0.0460805706679821,43.21937942504883,1099.934814453125 0.04617865011096001,43.219329833984375,902.7760009765625 0.0460805706679821,43.21937942504883,1099.9346923828125 0.04617865011096001,43.219329833984375,902.7760009765625 0.0460805706679821,43.21937942504883,1099.934814453125 0.04617865011096001,43.219329833984375,902.7760009765625 0.0460805706679821,43.21937942504883,1099.9346923828125 0.04617865011096001,43.219329833984375,902.77587890625 0.0460805706679821,43.21937942504883,1099.9346923828125 0.04617865011096001,43.219329833984375,902.77587890625 0.0460805706679821,43.21937942504883,1099.9345703125 0.04617865011096001,43.219329833984375,902.77587890625 0.0460805706679821,43.21937942504883,1099.934326171875 0.04617865011096001,43.219329833984375,902.77587890625 0.0460805706679821,43.21937942504883,1099.934326171875 0.04617865011096001,43.219329833984375,902.7757568359375 0.0460805706679821,43.21937942504883,1099.934326171875 0.04617865011096001,43.219329833984375,902.775634765625 0.0460805706679821,43.21937942504883,1099.934326171875 0.04617865011096001,43.219329833984375,902.7755126953125 0.0460805706679821,43.21937942504883,1099.93408203125 0.04617865011096001,43.219329833984375,902.7755126953125 0.0460805706679821,43.21937942504883,1099.93408203125 0.04617865011096001,43.219329833984375,902.7755126953125 0.0460805706679821,43.21937942504883,1099.93408203125 0.04617865011096001,43.219329833984375,902.775390625 0.0460805706679821,43.21937942504883,1099.933837890625 0.04617865011096001,43.219329833984375,902.775390625 0.0460805706679821,43.21937942504883,1099.933837890625 0.04617865011096001,43.219329833984375,902.7752685546875 0.0460805706679821,43.21937942504883,1099.933837890625 0.04617865011096001,43.219329833984375,902.775390625 0.0460805706679821,43.21937942504883,1099.933837890625 0.04617865011096001,43.219329833984375,902.7752685546875 0.0460805706679821,43.21937942504883,1099.933837890625 0.04617865011096001,43.219329833984375,902.7752685546875 0.0460805706679821,43.21937942504883,1099.93359375 0.04617865011096001,43.219329833984375,902.775146484375 0.0460805706679821,43.21937942504883,1099.9334716796875 0.04617865011096001,43.219329833984375,902.7750244140625 0.0460805706679821,43.21937942504883,1099.9334716796875 0.04617865011096001,43.219329833984375,902.7750244140625 0.0460805706679821,43.21937942504883,1099.933349609375 0.04617865011096001,43.219329833984375,902.7750244140625 0.0460805706679821,43.21937942504883,1099.9332275390625 0.04617865011096001,43.219329833984375,902.7750244140625 0.0460805706679821,43.21937942504883,1099.933349609375 0.04617865011096001,43.219329833984375,902.7750244140625 0.0460805706679821,43.21937942504883,1099.93310546875 0.046178653836250305,43.219329833984375,902.77490234375 0.0460805706679821,43.21937942504883,1099.93310546875 0.046178653836250305,43.219329833984375,902.77490234375 0.0460805743932724,43.21937942504883,1099.932861328125 0.046178653836250305,43.219329833984375,902.7747802734375 0.0460805743932724,43.21937942504883,1099.9329833984375 0.046178653836250305,43.219329833984375,902.774658203125 0.0460805743932724,43.21937942504883,1099.932861328125 0.046178653836250305,43.219329833984375,902.774658203125 0.0460805743932724,43.21937942504883,1099.9327392578125 0.046178653836250305,43.219329833984375,902.774658203125 0.0460805743932724,43.21937942504883,1099.9327392578125 0.046178653836250305,43.219329833984375,902.7744140625 0.0460805743932724,43.21937942504883,1099.9326171875 0.046178653836250305,43.219329833984375,902.7745361328125 0.0460805743932724,43.21937942504883,1099.9326171875 0.046178653836250305,43.219329833984375,902.7744140625 0.0460805743932724,43.21937942504883,1099.9324951171875 0.046178653836250305,43.219329833984375,902.7742919921875 0.0460805743932724,43.21937942504883,1099.9324951171875 0.046178653836250305,43.219329833984375,902.7742919921875 0.0460805743932724,43.21937942504883,1099.932373046875 0.046178653836250305,43.219329833984375,902.7742919921875 0.0460805743932724,43.21937942504883,1099.932373046875 0.046178653836250305,43.219329833984375,902.7742919921875 0.0460805743932724,43.21937942504883,1099.932373046875 0.046178653836250305,43.219329833984375,902.7742919921875 0.0460805743932724,43.21937942504883,1099.93212890625 0.046178653836250305,43.219329833984375,902.774169921875 0.0460805743932724,43.21937942504883,1099.93212890625 0.046178653836250305,43.219329833984375,902.7740478515625 0.0460805743932724,43.21937942504883,1099.93212890625 0.046178653836250305,43.219329833984375,902.7740478515625 0.0460805743932724,43.21937942504883,1099.931884765625 0.046178653836250305,43.219329833984375,902.77392578125 0.0460805743932724,43.21937942504883,1099.931884765625 0.046178653836250305,43.219329833984375,902.77392578125 0.0460805743932724,43.21937942504883,1099.931884765625 0.046178653836250305,43.219329833984375,902.7738037109375 0.0460805743932724,43.21937942504883,1099.931884765625 0.046178653836250305,43.219329833984375,902.7738037109375 0.0460805743932724,43.21937942504883,1099.931640625 0.046178653836250305,43.219329833984375,902.773681640625 0.0460805743932724,43.21937942504883,1099.931640625 0.046178653836250305,43.219329833984375,902.7738037109375 0.0460805743932724,43.21937942504883,1099.931396484375 0.046178653836250305,43.219329833984375,902.773681640625 0.0460805743932724,43.21937942504883,1099.931396484375 0.046178653836250305,43.219329833984375,902.7735595703125 0.0460805743932724,43.21937942504883,1099.931396484375 0.046178653836250305,43.219329833984375,902.773681640625 0.0460805743932724,43.21937942504883,1099.931396484375 0.046178653836250305,43.219329833984375,902.7735595703125 0.0460805743932724,43.21937942504883,1099.9312744140625 0.046178653836250305,43.219329833984375,902.7735595703125 0.0460805743932724,43.21937942504883,1099.93115234375 0.046178653836250305,43.219329833984375,902.7735595703125 0.0460805743932724,43.21937942504883,1099.93115234375 0.046178653836250305,43.219329833984375,902.7735595703125 0.0460805743932724,43.21937942504883,1099.9310302734375 0.046178653836250305,43.219329833984375,902.7733154296875 0.0460805743932724,43.21937942504883,1099.9310302734375 0.046178653836250305,43.219329833984375,902.7733154296875 0.0460805743932724,43.21937942504883,1099.9310302734375 0.046178653836250305,43.219329833984375,902.7733154296875 0.0460805781185627,43.21937942504883,1099.930908203125 0.046178653836250305,43.219329833984375,902.7730712890625 0.0460805781185627,43.21937942504883,1099.9307861328125 0.046178653836250305,43.219329833984375,902.7730712890625 0.0460805781185627,43.21937942504883,1099.9306640625 0.046178653836250305,43.219329833984375,902.77294921875 0.0460805781185627,43.21937942504883,1099.9305419921875 0.046178653836250305,43.219329833984375,902.7730712890625 0.0460805781185627,43.21937942504883,1099.9305419921875 0.046178653836250305,43.219329833984375,902.7730712890625 0.0460805781185627,43.21937942504883,1099.9306640625 0.046178653836250305,43.219329833984375,902.77294921875 0.0460805781185627,43.21937942504883,1099.9305419921875 0.046178653836250305,43.219329833984375,902.77294921875 0.0460805781185627,43.21937942504883,1099.930419921875 0.046178653836250305,43.219329833984375,902.7728271484375 0.0460805781185627,43.21937942504883,1099.9302978515625 0.046178653836250305,43.219329833984375,902.7728271484375 0.0460805781185627,43.21937942504883,1099.93017578125 0.046178653836250305,43.219329833984375,902.7728271484375 0.0460805781185627,43.21937942504883,1099.93017578125 0.046178653836250305,43.219329833984375,902.772705078125 0.0460805781185627,43.21937942504883,1099.93017578125 0.046178653836250305,43.219329833984375,902.772705078125 0.0460805781185627,43.21937942504883,1099.929931640625 0.046178653836250305,43.219329833984375,902.7725830078125 0.0460805781185627,43.21937942504883,1099.929931640625 0.046178653836250305,43.219329833984375,902.7725830078125 0.0460805781185627,43.21937942504883,1099.929931640625 0.046178657561540604,43.219329833984375,902.7724609375 0.0460805781185627,43.21937942504883,1099.9296875 0.046178657561540604,43.219329833984375,902.7723388671875 0.0460805781185627,43.21937942504883,1099.9296875 0.046178657561540604,43.219329833984375,902.772216796875 0.0460805781185627,43.21937942504883,1099.9296875 0.046178657561540604,43.219329833984375,902.772216796875 0.0460805781185627,43.21937942504883,1099.929443359375 0.046178657561540604,43.219329833984375,902.772216796875 0.0460805781185627,43.21937942504883,1099.929443359375 0.046178657561540604,43.219329833984375,902.7720947265625 0.0460805781185627,43.21937942504883,1099.929443359375 0.046178657561540604,43.219329833984375,902.772216796875 0.0460805781185627,43.21937942504883,1099.92919921875 0.046178657561540604,43.219329833984375,902.7720947265625 0.0460805781185627,43.21937942504883,1099.92919921875 0.046178657561540604,43.219329833984375,902.7720947265625 0.0460805781185627,43.21937942504883,1099.9290771484375 0.046178657561540604,43.219329833984375,902.77197265625 0.0460805781185627,43.21937942504883,1099.92919921875 0.046178657561540604,43.219329833984375,902.77197265625 0.0460805781185627,43.21937942504883,1099.92919921875 0.046178657561540604,43.219329833984375,902.77197265625 0.0460805781185627,43.21937942504883,1099.9290771484375 0.046178657561540604,43.219329833984375,902.77197265625 0.0460805781185627,43.21937942504883,1099.928955078125 0.046178657561540604,43.219329833984375,902.771728515625 0.046080581843853,43.21937942504883,1099.9288330078125 0.046178657561540604,43.219329833984375,902.771728515625 0.0460805781185627,43.21937942504883,1099.928955078125 0.046178657561540604,43.219329833984375,902.771728515625 0.046080581843853,43.21937942504883,1099.9288330078125 0.046178657561540604,43.219329833984375,902.7716064453125 0.046080581843853,43.21937942504883,1099.9288330078125 0.046178657561540604,43.219329833984375,902.7716064453125 0.046080581843853,43.21937942504883,1099.9287109375 0.046178657561540604,43.219329833984375,902.771484375 0.046080581843853,43.21937942504883,1099.9285888671875 0.046178657561540604,43.219329833984375,902.771484375 0.046080581843853,43.21937942504883,1099.928466796875 0.046178657561540604,43.219329833984375,902.7713623046875 0.046080581843853,43.21937942504883,1099.928466796875 0.046178657561540604,43.219329833984375,902.7713623046875 0.046080581843853,43.21937942504883,1099.9283447265625 0.046178657561540604,43.219329833984375,902.7713623046875 0.046080581843853,43.21937942504883,1099.92822265625 0.046178657561540604,43.219329833984375,902.771240234375 0.046080581843853,43.21937942504883,1099.92822265625 0.046178657561540604,43.219329833984375,902.771240234375 0.046080581843853,43.21937942504883,1099.927978515625 0.046178657561540604,43.219329833984375,902.7711181640625 0.046080581843853,43.21937942504883,1099.9281005859375 0.046178657561540604,43.219329833984375,902.77099609375 0.046080581843853,43.21937942504883,1099.927978515625 0.046178657561540604,43.219329833984375,902.77099609375 0.046080581843853,43.21937942504883,1099.927978515625 0.046178657561540604,43.219329833984375,902.7708740234375 0.046080581843853,43.21937942504883,1099.927734375 0.046178657561540604,43.219329833984375,902.7708740234375 0.046080581843853,43.21937942504883,1099.927734375 0.046178657561540604,43.219329833984375,902.770751953125 0.046080581843853,43.21937942504883,1099.927734375 0.046178657561540604,43.219329833984375,902.770751953125 0.046080581843853,43.21937942504883,1099.927734375 0.046178657561540604,43.219329833984375,902.7706298828125 0.046080581843853,43.21937942504883,1099.927490234375 0.046178657561540604,43.219329833984375,902.7706298828125 0.046080581843853,43.21937942504883,1099.927490234375 0.046178657561540604,43.219329833984375,902.7706298828125 0.046080581843853,43.21937942504883,1099.92724609375 0.046178657561540604,43.219329833984375,902.7706298828125 0.046080581843853,43.21937942504883,1099.92724609375 0.046178657561540604,43.219329833984375,902.7706298828125 0.046080581843853,43.21937942504883,1099.92724609375 0.046178657561540604,43.219329833984375,902.7705078125 0.046080581843853,43.21937942504883,1099.927001953125 0.046178657561540604,43.219329833984375,902.7705078125 0.046080581843853,43.21937942504883,1099.927001953125 0.046178657561540604,43.219329833984375,902.770263671875 0.046080581843853,43.21937942504883,1099.927001953125 0.046178657561540604,43.219329833984375,902.7703857421875 0.046080581843853,43.21937942504883,1099.927001953125 0.046178657561540604,43.219329833984375,902.770263671875 0.046080581843853,43.21937942504883,1099.9268798828125 0.0461786612868309,43.219329833984375,902.7701416015625 0.046080585569143295,43.21937942504883,1099.9267578125 0.0461786612868309,43.219329833984375,902.7701416015625 0.046080585569143295,43.21937942504883,1099.9266357421875 0.0461786612868309,43.219329833984375,902.77001953125 0.046080585569143295,43.21937942504883,1099.926513671875 0.0461786612868309,43.219329833984375,902.77001953125 0.046080585569143295,43.21937942504883,1099.926513671875 0.0461786612868309,43.219329833984375,902.7698974609375 0.046080585569143295,43.21937942504883,1099.926513671875 0.0461786612868309,43.219329833984375,902.7698974609375 0.046080585569143295,43.21937942504883,1099.926513671875 0.0461786612868309,43.219329833984375,902.7698974609375 0.046080585569143295,43.21937942504883,1099.9263916015625 0.0461786612868309,43.219329833984375,902.7698974609375 0.046080585569143295,43.21937942504883,1099.92626953125 0.0461786612868309,43.219329833984375,902.769775390625 0.046080585569143295,43.21937942504883,1099.9261474609375 0.0461786612868309,43.219329833984375,902.769775390625 0.046080585569143295,43.21937942504883,1099.9261474609375 0.0461786612868309,43.219329833984375,902.769775390625 0.046080585569143295,43.21937942504883,1099.9261474609375 0.0461786612868309,43.219329833984375,902.769775390625 0.046080585569143295,43.21937942504883,1099.926025390625 0.0461786612868309,43.219329833984375,902.76953125 0.046080585569143295,43.21937942504883,1099.926025390625 0.0461786612868309,43.219329833984375,902.76953125 0.046080585569143295,43.21937942504883,1099.926025390625 0.0461786612868309,43.219329833984375,902.76953125 0.046080585569143295,43.21937942504883,1099.92578125 0.0461786612868309,43.219329833984375,902.76953125 0.046080585569143295,43.21937942504883,1099.925537109375 0.0461786612868309,43.219329833984375,902.7694091796875 0.046080585569143295,43.21937942504883,1099.925537109375 0.0461786612868309,43.219329833984375,902.7694091796875 0.046080585569143295,43.21937942504883,1099.925537109375 0.0461786612868309,43.219329833984375,902.7694091796875 0.046080585569143295,43.21937942504883,1099.925537109375 0.0461786612868309,43.219329833984375,902.769287109375 0.046080585569143295,43.21937942504883,1099.925537109375 0.0461786612868309,43.219329833984375,902.7691650390625 0.046080585569143295,43.21937942504883,1099.92529296875 0.0461786612868309,43.219329833984375,902.7691650390625 0.046080585569143295,43.21937942504883,1099.92529296875 0.0461786612868309,43.219329833984375,902.7691650390625 0.046080585569143295,43.21937942504883,1099.92529296875 0.0461786612868309,43.219329833984375,902.76904296875 0.046080585569143295,43.21937942504883,1099.92529296875 0.0461786612868309,43.219329833984375,902.76904296875 0.046080585569143295,43.21937942504883,1099.925048828125 0.0461786612868309,43.219329833984375,902.76904296875 0.046080585569143295,43.21937942504883,1099.925048828125 0.0461786612868309,43.219329833984375,902.7689208984375 0.046080585569143295,43.21937942504883,1099.925048828125 0.0461786612868309,43.219329833984375,902.7689208984375 0.046080585569143295,43.21937942504883,1099.9248046875 0.0461786612868309,43.219329833984375,902.7686767578125 0.046080585569143295,43.21937942504883,1099.9248046875 0.0461786612868309,43.219329833984375,902.7686767578125 0.046080585569143295,43.21937942504883,1099.9248046875 0.0461786612868309,43.219329833984375,902.7686767578125 0.046080585569143295,43.21937942504883,1099.9246826171875 0.0461786612868309,43.219329833984375,902.7686767578125 0.046080589294433594,43.21937942504883,1099.9246826171875 0.0461786612868309,43.219329833984375,902.7685546875 0.046080589294433594,43.21937942504883,1099.924560546875 0.0461786612868309,43.219329833984375,902.7685546875 0.046080589294433594,43.21937942504883,1099.9244384765625 0.0461786612868309,43.219329833984375,902.7685546875 0.046080589294433594,43.21937942504883,1099.92431640625 0.0461786612868309,43.219329833984375,902.7685546875 0.046080589294433594,43.21937942504883,1099.9244384765625 0.0461786612868309,43.219329833984375,902.7685546875 0.046080589294433594,43.21937942504883,1099.92431640625 0.0461786612868309,43.219329833984375,902.7685546875 0.046080589294433594,43.21937942504883,1099.9241943359375 0.0461786612868309,43.219329833984375,902.7684326171875 0.046080589294433594,43.21937942504883,1099.924072265625 0.0461786612868309,43.219329833984375,902.7684326171875 0.046080589294433594,43.21937942504883,1099.924072265625 0.0461786612868309,43.219329833984375,902.7684326171875 0.046080589294433594,43.21937942504883,1099.9239501953125 0.0461786612868309,43.219329833984375,902.768310546875 0.046080589294433594,43.21937942504883,1099.9239501953125 0.0461786612868309,43.219329833984375,902.7681884765625 0.046080589294433594,43.21937942504883,1099.923828125 0.0461786612868309,43.219329833984375,902.7681884765625 0.046080589294433594,43.21937942504883,1099.923828125 0.0461786612868309,43.219329833984375,902.76806640625 0.046080589294433594,43.21937942504883,1099.923828125 0.0461786612868309,43.219329833984375,902.76806640625 0.046080589294433594,43.21937942504883,1099.923583984375 0.0461786650121212,43.219329833984375,902.76806640625 0.046080589294433594,43.21937942504883,1099.923583984375 0.0461786650121212,43.219329833984375,902.7679443359375 0.046080589294433594,43.21937942504883,1099.923583984375 0.0461786650121212,43.219329833984375,902.7679443359375 0.046080589294433594,43.21937942504883,1099.92333984375 0.0461786650121212,43.219329833984375,902.767822265625 0.046080589294433594,43.21937942504883,1099.92333984375 0.0461786650121212,43.219329833984375,902.7677001953125 0.046080589294433594,43.21937942504883,1099.92333984375 0.0461786650121212,43.219329833984375,902.7677001953125 0.046080589294433594,43.21937942504883,1099.923095703125 0.0461786650121212,43.219329833984375,902.767578125 0.046080589294433594,43.21937942504883,1099.923095703125 0.0461786650121212,43.219329833984375,902.767578125 0.046080589294433594,43.21937942504883,1099.923095703125 0.0461786650121212,43.219329833984375,902.767578125 0.046080589294433594,43.21937942504883,1099.923095703125 0.0461786650121212,43.219329833984375,902.7674560546875 0.046080589294433594,43.21937942504883,1099.9228515625 0.0461786650121212,43.219329833984375,902.767333984375 0.046080589294433594,43.21937942504883,1099.9227294921875 0.0461786650121212,43.219329833984375,902.7674560546875 0.046080589294433594,43.21937942504883,1099.9227294921875 0.0461786650121212,43.219329833984375,902.7672119140625 0.046080589294433594,43.21937942504883,1099.9228515625 0.0461786650121212,43.219329833984375,902.7672119140625 0.04608059301972389,43.21937942504883,1099.922607421875 0.0461786650121212,43.219329833984375,902.76708984375 0.04608059301972389,43.21937942504883,1099.9224853515625 0.0461786650121212,43.219329833984375,902.76708984375 0.04608059301972389,43.21937942504883,1099.92236328125 0.0461786650121212,43.219329833984375,902.76708984375 0.04608059301972389,43.21937942504883,1099.9222412109375 0.0461786650121212,43.219329833984375,902.76708984375 0.04608059301972389,43.21937942504883,1099.92236328125 0.0461786650121212,43.219329833984375,902.7669677734375 0.04608059301972389,43.21937942504883,1099.9222412109375 0.0461786650121212,43.219329833984375,902.7669677734375 0.04608059301972389,43.21937942504883,1099.9222412109375 0.0461786650121212,43.219329833984375,902.7669677734375 0.04608059301972389,43.21937942504883,1099.922119140625 0.0461786650121212,43.219329833984375,902.766845703125 0.04608059301972389,43.21937942504883,1099.922119140625 0.0461786650121212,43.219329833984375,902.7667236328125 0.04608059301972389,43.21937942504883,1099.9219970703125 0.0461786650121212,43.219329833984375,902.7667236328125 0.04608059301972389,43.21937942504883,1099.921875 0.0461786650121212,43.219329833984375,902.7667236328125 0.04608059301972389,43.21937942504883,1099.921875 0.0461786650121212,43.219329833984375,902.7667236328125 0.04608059301972389,43.21937942504883,1099.9217529296875 0.0461786650121212,43.219329833984375,902.7667236328125 0.04608059301972389,43.21937942504883,1099.9217529296875 0.0461786650121212,43.219329833984375,902.7666015625 0.04608059301972389,43.21937942504883,1099.921630859375 0.0461786650121212,43.219329833984375,902.7664794921875 0.04608059301972389,43.21937942504883,1099.921630859375 0.0461786650121212,43.219329833984375,902.7664794921875 0.04608059301972389,43.21937942504883,1099.921630859375 0.0461786650121212,43.219329833984375,902.7664794921875 0.04608059301972389,43.21937942504883,1099.92138671875 0.0461786650121212,43.219329833984375,902.766357421875 0.04608059301972389,43.21937942504883,1099.92138671875 0.0461786650121212,43.219329833984375,902.766357421875 0.04608059301972389,43.21937942504883,1099.92138671875 0.0461786650121212,43.219329833984375,902.766357421875 0.04608059301972389,43.21937942504883,1099.92138671875 0.0461786650121212,43.219329833984375,902.766357421875 0.04608059301972389,43.21937942504883,1099.921142578125 0.0461786650121212,43.219329833984375,902.7662353515625 0.04608059301972389,43.21937942504883,1099.921142578125 0.0461786650121212,43.219329833984375,902.76611328125 0.04608059301972389,43.21937942504883,1099.921142578125 0.0461786650121212,43.219329833984375,902.76611328125 0.04608059301972389,43.21937942504883,1099.921142578125 0.0461786650121212,43.219329833984375,902.7659912109375 0.04608059301972389,43.21937942504883,1099.9208984375 0.0461786650121212,43.219329833984375,902.7659912109375 0.04608059301972389,43.21937942504883,1099.9208984375 0.0461786650121212,43.219329833984375,902.765869140625 0.04608059301972389,43.21937942504883,1099.9208984375 0.0461786650121212,43.219329833984375,902.765869140625 0.04608059301972389,43.21937942504883,1099.920654296875 0.0461786650121212,43.219329833984375,902.765869140625 0.04608059301972389,43.21937942504883,1099.920654296875 0.0461786650121212,43.219329833984375,902.765869140625 0.04608059301972389,43.21937942504883,1099.9205322265625 0.0461786687374115,43.219329833984375,902.765625 0.04608059674501419,43.21937942504883,1099.920654296875 0.0461786687374115,43.219329833984375,902.765625 0.04608059674501419,43.21937942504883,1099.9205322265625 0.0461786687374115,43.219329833984375,902.765625 0.04608059674501419,43.21937942504883,1099.92041015625 0.0461786687374115,43.219329833984375,902.7655029296875 0.04608059674501419,43.21937942504883,1099.92041015625 0.0461786687374115,43.219329833984375,902.765625 0.04608059674501419,43.21937942504883,1099.920166015625 0.0461786687374115,43.219329833984375,902.7655029296875 0.04608059674501419,43.21937942504883,1099.920166015625 0.0461786687374115,43.219329833984375,902.7655029296875 0.04608059674501419,43.21937942504883,1099.920166015625 0.0461786687374115,43.219329833984375,902.765380859375 0.04608059674501419,43.21937942504883,1099.9200439453125 0.0461786687374115,43.219329833984375,902.7652587890625 0.04608059674501419,43.21937942504883,1099.9200439453125 0.0461786687374115,43.219329833984375,902.7652587890625 0.04608059674501419,43.21937942504883,1099.919921875 0.0461786687374115,43.219329833984375,902.7652587890625 0.04608059674501419,43.21937942504883,1099.919677734375 0.0461786687374115,43.219329833984375,902.7652587890625 0.04608059674501419,43.21937942504883,1099.919677734375 0.0461786687374115,43.219329833984375,902.76513671875 0.04608059674501419,43.21937942504883,1099.9195556640625 0.0461786687374115,43.219329833984375,902.7650146484375 0.04608059674501419,43.21937942504883,1099.9195556640625 0.0461786687374115,43.219329833984375,902.7650146484375 0.04608059674501419,43.21937942504883,1099.9195556640625 0.0461786687374115,43.219329833984375,902.7650146484375 0.04608059674501419,43.21937942504883,1099.9195556640625 0.0461786687374115,43.219329833984375,902.764892578125 0.04608059674501419,43.21937942504883,1099.91943359375 0.0461786687374115,43.219329833984375,902.7647705078125 0.04608059674501419,43.21937942504883,1099.91943359375 0.0461786687374115,43.219329833984375,902.7647705078125 0.04608059674501419,43.21937942504883,1099.919189453125 0.0461786687374115,43.219329833984375,902.7646484375 0.04608059674501419,43.21937942504883,1099.9189453125 0.0461786687374115,43.219329833984375,902.7646484375 0.04608059674501419,43.21937942504883,1099.9189453125 0.0461786687374115,43.219329833984375,902.7645263671875 0.04608059674501419,43.21937942504883,1099.9189453125 0.0461786687374115,43.219329833984375,902.7645263671875 0.04608059674501419,43.21937942504883,1099.9189453125 0.0461786687374115,43.219329833984375,902.764404296875 0.04608059674501419,43.21937942504883,1099.9189453125 0.0461786687374115,43.219329833984375,902.7642822265625 0.04608059674501419,43.21937942504883,1099.9189453125 0.0461786687374115,43.219329833984375,902.7642822265625 0.04608059674501419,43.21937942504883,1099.918701171875 0.0461786687374115,43.219329833984375,902.76416015625 0.04608059674501419,43.21937942504883,1099.918701171875 0.0461786687374115,43.219329833984375,902.76416015625 0.04608059674501419,43.21937942504883,1099.91845703125 0.0461786687374115,43.219329833984375,902.76416015625 0.04608059674501419,43.21937942504883,1099.91845703125 0.0461786687374115,43.219329833984375,902.76416015625 0.04608060047030449,43.21937942504883,1099.91845703125 0.0461786687374115,43.219329833984375,902.7640380859375 0.04608060047030449,43.21937942504883,1099.9183349609375 0.0461786687374115,43.219329833984375,902.7640380859375 0.04608060047030449,43.21937942504883,1099.918212890625 0.0461786687374115,43.219329833984375,902.7640380859375 0.04608060047030449,43.21937942504883,1099.9180908203125 0.0461786687374115,43.219329833984375,902.7640380859375 0.04608060047030449,43.21937942504883,1099.918212890625 0.0461786687374115,43.219329833984375,902.763916015625 0.04608060047030449,43.21937942504883,1099.918212890625 0.0461786687374115,43.219329833984375,902.7637939453125 0.04608060047030449,43.21937942504883,1099.9180908203125 0.0461786687374115,43.219329833984375,902.7637939453125 0.04608060047030449,43.21937942504883,1099.91796875 0.0461786687374115,43.219329833984375,902.7637939453125 0.04608060047030449,43.21937942504883,1099.91796875 0.0461786687374115,43.219329833984375,902.763671875 0.04608060047030449,43.21937942504883,1099.917724609375 0.0461786687374115,43.219329833984375,902.7635498046875 0.04608060047030449,43.21937942504883,1099.9176025390625 0.0461786687374115,43.219329833984375,902.7635498046875 0.04608060047030449,43.21937942504883,1099.91748046875 0.0461786687374115,43.219329833984375,902.7635498046875 0.04608060047030449,43.21937942504883,1099.91748046875 0.0461786687374115,43.219329833984375,902.763427734375 0.04608060047030449,43.21937942504883,1099.91748046875 0.0461786687374115,43.219329833984375,902.7635498046875 0.04608060047030449,43.21937942504883,1099.91748046875 0.0461786724627018,43.219329833984375,902.7633056640625 0.04608060047030449,43.21937942504883,1099.917236328125 0.0461786724627018,43.219329833984375,902.7633056640625 0.04608060047030449,43.21937942504883,1099.917236328125 0.0461786687374115,43.219329833984375,902.7633056640625 0.04608060047030449,43.21937942504883,1099.9173583984375 0.0461786687374115,43.219329833984375,902.7633056640625 0.04608060047030449,43.21937942504883,1099.917236328125 0.0461786724627018,43.219329833984375,902.76318359375 0.04608060047030449,43.21937942504883,1099.9169921875 0.0461786724627018,43.219329833984375,902.7630615234375 0.04608060047030449,43.21937942504883,1099.9169921875 0.0461786724627018,43.219329833984375,902.76318359375 0.04608060047030449,43.21937942504883,1099.9169921875 0.0461786724627018,43.219329833984375,902.762939453125 0.04608060047030449,43.21937942504883,1099.9169921875 0.0461786724627018,43.219329833984375,902.762939453125 0.04608060047030449,43.21937942504883,1099.9169921875 0.0461786724627018,43.219329833984375,902.762939453125 0.04608060047030449,43.21937942504883,1099.916748046875 0.0461786724627018,43.219329833984375,902.762939453125 0.04608060047030449,43.21937942504883,1099.916748046875 0.0461786724627018,43.219329833984375,902.7628173828125 0.04608060047030449,43.21937942504883,1099.91650390625 0.0461786724627018,43.219329833984375,902.7628173828125 0.04608060047030449,43.21937942504883,1099.91650390625 0.0461786724627018,43.219329833984375,902.7626953125 0.04608060047030449,43.21937942504883,1099.91650390625 0.0461786724627018,43.219329833984375,902.7625732421875 0.04608060419559479,43.21937942504883,1099.916259765625 0.0461786724627018,43.219329833984375,902.7625732421875 0.04608060419559479,43.21937942504883,1099.916259765625 0.0461786724627018,43.219329833984375,902.7625732421875 0.04608060419559479,43.21937942504883,1099.9161376953125 0.0461786724627018,43.219329833984375,902.762451171875 0.04608060419559479,43.21937942504883,1099.916259765625 0.0461786724627018,43.219329833984375,902.762451171875 0.04608060419559479,43.21937942504883,1099.9158935546875 0.0461786724627018,43.219329833984375,902.7623291015625 0.04608060419559479,43.21937942504883,1099.916015625 0.0461786724627018,43.219329833984375,902.762451171875 0.04608060419559479,43.21937942504883,1099.916015625 0.0461786724627018,43.219329833984375,902.7623291015625 0.04608060419559479,43.21937942504883,1099.915771484375 0.0461786724627018,43.219329833984375,902.7623291015625 0.04608060419559479,43.21937942504883,1099.9158935546875 0.0461786724627018,43.219329833984375,902.76220703125 0.04608060419559479,43.21937942504883,1099.915771484375 0.0461786724627018,43.219329833984375,902.7620849609375 0.04608060419559479,43.21937942504883,1099.9156494140625 0.0461786724627018,43.219329833984375,902.7620849609375 0.04608060419559479,43.21937942504883,1099.91552734375 0.0461786724627018,43.219329833984375,902.7620849609375 0.04608060419559479,43.21937942504883,1099.91552734375 0.0461786724627018,43.219329833984375,902.7620849609375 0.04608060419559479,43.21937942504883,1099.9154052734375 0.0461786724627018,43.219329833984375,902.761962890625 0.04608060419559479,43.21937942504883,1099.9154052734375 0.0461786724627018,43.219329833984375,902.761962890625 0.04608060419559479,43.21937942504883,1099.9154052734375 0.0461786724627018,43.219329833984375,902.7618408203125 0.04608060419559479,43.21937942504883,1099.915283203125 0.0461786724627018,43.219329833984375,902.7618408203125 0.04608060419559479,43.21937942504883,1099.9150390625 0.0461786724627018,43.219329833984375,902.76171875 0.04608060419559479,43.21937942504883,1099.9150390625 0.0461786724627018,43.219329833984375,902.76171875 0.04608060419559479,43.21937942504883,1099.9150390625 0.0461786724627018,43.219329833984375,902.76171875 0.04608060419559479,43.21937942504883,1099.9150390625 0.0461786724627018,43.219329833984375,902.76171875 0.04608060419559479,43.21937942504883,1099.914794921875 0.0461786724627018,43.219329833984375,902.7615966796875 0.04608060419559479,43.21937942504883,1099.914794921875</coordinates>
      </LineString>
    </Placemark>
  </Document>
</kml>